{"type":"Topology","bbox":[4.087524362002349,57.759005282950625,31.761592631162344,71.384878756345],"objects":{"fylker":{"type":"GeometryCollection","geometries":[{"type":"MultiPolygon","arcs":[[[0,1,2,3]]],"properties":{"code":"03","name":"Oslo"}},{"type":"MultiPolygon","arcs":[[[4,5,6,7,8,9,10,11,12,13,-14,13,14,15,16,17,18,19]]],"properties":{"code":"11","name":"Rogaland"}},{"type":"MultiPolygon","arcs":[[[20,21,22,23,24,-25,24,25,26,27,28,29,30,31,-27,32,33,-34,33,34,35,36]]],"properties":{"code":"15","name":"Møre og Romsdal"}},{"type":"MultiPolygon","arcs":[[[37,38,39,40]]],"properties":{"code":"18","name":"Nordland"}},{"type":"MultiPolygon","arcs":[[[41,42,43]]],"properties":{"code":"31","name":"Østfold"}},{"type":"MultiPolygon","arcs":[[[44,42,45,46,2,3,0,47,48,49]]],"properties":{"code":"32","name":"Akershus"}},{"type":"MultiPolygon","arcs":[[[50,51,52,53,54,55,56,57,58,59,60,61,62,63,64,65,66,67,68,-69,68,69,70,46,2,-3,-2,47,48,71,72,73,74,75,76,77,78,78,79,80,81,82,83,84,85,86]]],"properties":{"code":"33","name":"Buskerud"}},{"type":"MultiPolygon","arcs":[[[20,87,88,89,90,91,92,93,94,95,96,97,98,99,100,101,102,103,-104,103,104,105,106,107,108,109,-110,109,110,111,-112,111,112,113,-114,114,115,-116,116,117,118,-119,118,-119,118,119,-86,84,-84,82,-82,80,-80,78,78,-78,76,-76,74,-74,72,-72,49,120,121]]],"properties":{"code":"34","name":"Innlandet"}},{"type":"MultiPolygon","arcs":[[[45,-71,69,-69,68,-69,-68,66,-66,64,-64,62,-62,60,-60,58,-58,56,-56,54,-54,52,-52,122,123,-44]]],"properties":{"code":"39","name":"Vestfold"}},{"type":"MultiPolygon","arcs":[[[124,125,126,127,128,129,130,131,132,132,133,134,135,136,-137,136,137,138,-139,139,-140,138,140,141,142,143,144,145,-6,146,50,122]]],"properties":{"code":"40","name":"Telemark"}},{"type":"MultiPolygon","arcs":[[[-19,17,-17,15,-15,-14,13,-14,-13,11,-11,9,-9,7,-7,-146,144,-144,142,-142,-141,-139,139,-140,138,-139,-138,-137,136,-137,-136,134,-134,132,132,-132,130,-130,128,-128,126,-126,147]]],"properties":{"code":"42","name":"Agder"}},{"type":"MultiPolygon","arcs":[[[-120,-119,118,-119,118,-119,117,-117,115,-116,-115,113,-114,-113,-112,111,-112,-111,-110,109,-110,-109,107,-107,105,-105,-104,103,-104,-103,101,-101,-100,98,-98,96,-96,94,-94,92,-92,90,-90,88,-88,21,148,4,146,-87]]],"properties":{"code":"46","name":"Vestland"}},{"type":"MultiPolygon","arcs":[[[40,149,121,-37,35,-35,-34,33,-34,-33,26,-32,30,-30,28,-28,-27,-26,-25,24,-25,-24,150]]],"properties":{"code":"50","name":"Trøndelag"}},{"type":"MultiPolygon","arcs":[[[151,152,153,38]]],"properties":{"code":"55","name":"Troms"}},{"type":"MultiPolygon","arcs":[[[152,154]]],"properties":{"code":"56","name":"Finnmark"}}]}},"arcs":[[[10.60265154528094,60.13423255209018],[10.599883861685665,60.131507104850776]],[[10.599883861685665,60.131507104850776],[10.57220702573291,60.11651714503406],[10.591580810899838,60.09607629073854],[10.597116178090388,60.07699816006272],[10.583277760114012,60.07699816006272],[10.489176517874643,60.01840104441556]],[[10.489176517874643,60.01840104441556],[10.489176517874643,60.017038320795855]],[[10.489176517874643,60.017038320795855],[10.516853353827399,59.99932291373974],[10.555600924161256,59.99659746650033],[10.594348494495113,59.97751933582452],[10.619257646852592,59.97070571772601],[10.635863748424246,59.95026486343049],[10.635863748424246,59.935274903613774],[10.624793014043144,59.92301039103646],[10.64693448280535,59.909383154839446],[10.65800521718645,59.88485412968482],[10.688449736734482,59.875315064346914],[10.73273267425889,59.875315064346914],[10.743803408639991,59.839884250234675],[10.774247928188021,59.82353156679826],[10.81299549852188,59.82489429041796],[10.815763182117156,59.818080672319454],[10.846207701665186,59.816717948699754],[10.851743068855738,59.80990433060124],[10.879419904808493,59.81262977784065],[10.901561373570697,59.82625701403766],[10.937541260309278,59.831707908516464],[10.907096740761247,59.86986416986811],[10.912632107951799,59.90802043121975],[10.920935158737626,59.92709856189556],[10.951379678285656,59.95026486343049],[10.940308943904554,59.954353034289596],[10.926470525928178,59.98433295392302],[10.89325832278487,59.98024478306392],[10.865581486832115,59.99523474288063],[10.83790465087936,59.99796019012004],[10.83236928368881,60.01840104441556],[10.81299549852188,60.02248921527466],[10.818530865712432,60.064733647485404],[10.785318662569125,60.06882181834451],[10.754874143021095,60.10561535607645],[10.768712560997471,60.112428974174954],[10.738268041449441,60.12605621037197],[10.716126572687237,60.119242592273466],[10.680146685948655,60.132869828470476],[10.60265154528094,60.13423255209018]],[[4.602313510723597,59.557800460956486],[4.975950796085794,59.49647789806992],[5.186294749326733,59.51555602874574],[5.247183788422795,59.501928792548725],[5.310840511114132,59.477399767394104],[5.332981979876337,59.4801252146335],[5.371729550210194,59.49511517445022],[5.377264917400745,59.48557610911231],[5.432618589306255,59.49784062168962],[5.4630631088542865,59.499203345309326],[5.460295425259011,59.51555602874574],[5.471366159640112,59.52100692322455],[5.496275311997593,59.51691875236544],[5.51011372997397,59.52236964684425],[5.5211844643550725,59.54144777752007],[5.551628983903103,59.56597680267469],[5.537790565926725,59.616397576603646],[5.546093616712552,59.66136745605379],[5.571002769070032,59.69543554654633],[5.562699718284205,59.725415466179754],[5.5820735034511335,59.75403266219349],[5.595911921427511,59.75266993857378],[5.634659491761369,59.70088644102513],[5.687245480071604,59.68589648120842],[5.764740620739318,59.69952371740543],[5.775811355120421,59.65727928519468],[5.786882089501523,59.64637749623707],[5.822861976240104,59.64774021985678],[5.822861976240104,59.63820115451887],[5.845003445002309,59.628662089180956],[5.897589433312544,59.62321119470215],[5.897589433312544,59.61230940574454],[5.964013839599157,59.60140761678693],[5.969549206789708,59.57960403887171],[6.005529093528289,59.58505493335051],[6.008296777123565,59.594593998688424],[6.0415089802668716,59.59050582782932],[6.058115081838524,59.59868216954752],[6.08579191779128,59.595956722308124],[6.119004120934586,59.58505493335051],[6.182660843625923,59.58641765697021],[6.19096389441175,59.60140761678693],[6.177125476435372,59.61503485298394],[6.19096389441175,59.64365204899767],[6.207569995983403,59.64637749623707],[6.226943781150331,59.69407282292662],[6.268459035079465,59.70361188826453],[6.268459035079465,59.732229084278266],[6.29613587103222,59.75675810943289],[6.301671238222771,59.7676598983905],[6.329348074175526,59.7731107928693],[6.332115757770802,59.784012581826914],[6.35148954293773,59.782649858207215],[6.426217000010169,59.78946347630572],[6.440055417986548,59.80445343612244],[6.48157067191568,59.818080672319454],[6.536924343821191,59.842609697474074],[6.570136546964497,59.831707908516464],[6.603348750107804,59.83307063213617],[6.658702422013314,59.84397242109378],[6.694682308751895,59.82353156679826],[6.686379257966069,59.81535522508005],[6.678076207180243,59.781287134587515],[6.6891469415613445,59.769022622010205],[6.653167054822763,59.721327295320656],[6.655934738418038,59.70224916464483],[6.711288410323549,59.69407282292662],[6.747268297062131,59.70088644102513],[6.763874398633783,59.69952371740543],[6.786015867395989,59.713150953602444],[6.882884793230632,59.74176814961617],[6.98252140266055,59.7731107928693],[7.095996430066847,59.782649858207215]],[[7.095996430066847,59.782649858207215],[7.109834848043224,59.7635717275314],[7.115370215233776,59.71451367722214],[7.109834848043224,59.70088644102513],[7.176259254329837,59.68589648120842],[7.2150068246636945,59.6722692450114]],[[7.2150068246636945,59.6722692450114],[7.209471457473144,59.6681810741523],[7.1568854691629085,59.664092903293195],[7.0987641136621225,59.65182839071588],[7.087693379281021,59.619123023843045],[7.060016543328265,59.60140761678693],[7.048945808947163,59.58778038058991],[6.990824453446377,59.59731944592782],[6.979753719065275,59.550986842857974],[6.979753719065275,59.52236964684425],[6.963147617493622,59.51555602874574],[7.004662871422754,59.503291516168424],[7.018501289399133,59.4787624910138],[6.990824453446377,59.45968436033798],[6.957612250303071,59.444694400521264],[6.882884793230632,59.42697899346515],[6.932703097945591,59.39972452107112],[6.907793945588111,59.39154817935291],[6.891187844016458,59.39836179745142],[6.857975640873152,59.35884281248008],[6.835834172110948,59.31932382750874],[6.830298804920396,59.31796110388903],[6.824763437729846,59.270265777199484],[6.841369539301499,59.25118764652367],[6.838601855706223,59.19259053087651],[6.84690490649205,59.1830514655386],[6.9188646799692135,59.184414189158296],[6.938238465136142,59.1816887419189],[6.921632363564489,59.16533605848248],[6.885652476825907,59.150346098665764],[6.880117109635356,59.14080703332785],[6.899490894802285,59.13399341522935],[6.905026261992836,59.113552560933826],[6.791551234586539,59.054955445286666],[6.780480500205437,59.03996548546995],[6.755571347847957,59.03178914375174],[6.705753043132997,59.00180922411831],[6.702985359537722,58.9936328824001],[6.664237789203865,58.985456540681895],[6.633793269655834,58.939123937612045],[6.561833496178671,58.91050674159831],[6.5673688633692215,58.88597771644369],[6.581207281345599,58.881889545584585]],[[6.581207281345599,58.881889545584585],[6.581207281345599,58.881889545584585]],[[6.581207281345599,58.881889545584585],[6.589510332131425,58.881889545584585]],[[6.589510332131425,58.881889545584585],[6.589510332131425,58.881889545584585]],[[6.589510332131425,58.881889545584585],[6.595045699321977,58.883252269204284]],[[6.595045699321977,58.883252269204284],[6.595045699321977,58.883252269204284]],[[6.595045699321977,58.883252269204284],[6.608884117298354,58.880526821964885],[6.589510332131425,58.86008596766936],[6.5646011797739465,58.84237056061325],[6.550762761797568,58.81511608821921],[6.536924343821191,58.8014888520222],[6.517550558654262,58.76878348514937],[6.531388976630639,58.767420761529664]],[[6.531388976630639,58.767420761529664],[6.531388976630639,58.76878348514937]],[[6.531388976630639,58.76878348514937],[6.550762761797568,58.764695314290265]],[[6.550762761797568,58.764695314290265],[6.550762761797568,58.764695314290265]],[[6.550762761797568,58.764695314290265],[6.559065812583395,58.764695314290265]],[[6.559065812583395,58.764695314290265],[6.559065812583395,58.764695314290265]],[[6.559065812583395,58.764695314290265],[6.575671914155048,58.763332590670565],[6.5729042305597725,58.74152901275534],[6.603348750107804,58.729264500178026],[6.617187168084181,58.715637263981016],[6.6227225352747325,58.69655913330519],[6.600581066512528,58.68702006796728],[6.550762761797568,58.67611827900967],[6.498176773487334,58.669304660911166],[6.476035304725129,58.672030108150565],[6.4538938359629245,58.66521649005206],[6.437287734391272,58.648863806615644],[6.478802988320405,58.63523657041863],[6.498176773487334,58.60934482164431],[6.531388976630639,58.62706022870042],[6.583974964940875,58.61479571612311],[6.614419484488906,58.62569750508072],[6.58674264853615,58.590266690968484],[6.608884117298354,58.57800217839117],[6.617187168084181,58.55619860047595],[6.61165180089363,58.53439502256072],[6.592278015726701,58.5098659974061],[6.58674264853615,58.49215059034998],[6.600581066512528,58.494876037589385],[6.6310255860605585,58.44309254004073],[6.608884117298354,58.43082802746342],[6.595045699321977,58.4158380676467],[6.608884117298354,58.37359363543596],[6.5646011797739465,58.331349203225216],[6.542459711011742,58.319084690647905],[6.48157067191568,58.30136928359178],[6.373631011699935,58.27684025843716],[6.149448640482617,58.027461836031804]],[[6.149448640482617,58.027461836031804],[6.044276663862147,58.07788260996075],[5.8726802809550644,58.158283303523135],[5.609750339403889,58.27956570567656],[5.554396667498379,58.31090834892969],[5.4049417533535,58.40084810782999],[5.341285030662163,58.44309254004073],[5.202900850898386,58.57118856029266],[5.1696886477550805,58.612070268883706],[5.1115672922542945,58.7006473041643],[5.08942582349209,58.74970535447355],[5.0562136203487835,58.81511608821921],[5.006395315633824,58.91868308331652],[5.006395315633824,58.92277125417563],[4.901223339013354,58.997721053259205],[4.718556221725169,59.07130812872308],[4.585707409151944,59.12309162627174],[4.527586053651158,59.15715971676427],[4.486070799722025,59.19531597811591],[4.469464698150372,59.221207726890235],[4.455626280173994,59.268903053579784],[4.455626280173994,59.30433386769202],[4.463929330959821,59.33158834008605],[4.483303116126749,59.36838187781799],[4.5303537372464335,59.444694400521264],[4.569101307580291,59.503291516168424],[4.602313510723597,59.557800460956486]],[[9.061051782712472,62.37318745925959],[9.016768845188064,62.35819749944288],[8.972485907663653,62.354109328583775],[8.91989991935342,62.354109328583775],[8.889455399805389,62.375912906498996],[8.792586473970745,62.378638353738395],[8.634828509040041,62.37455018287929],[8.463232126132958,62.36364839392168],[8.385736985465243,62.36364839392168],[8.275029641654221,62.34865843410497],[8.205837551772333,62.33230575066855],[8.169857665033753,62.30505127827452],[8.13941314548572,62.295512212936615],[8.10896862593769,62.26962046416229],[8.081291789984935,62.25326778072587],[7.984422864150291,62.17695525802259],[7.862644785958168,62.17014163992408],[7.826664899219587,62.189219770599905],[7.7353313405754935,62.1851315997408],[7.655068516312504,62.141524443910356],[7.580341059240064,62.12244631323453],[7.632927047550299,62.085652775502595],[7.591411793621166,62.074750986544984],[7.58310874283534,62.06521192120707],[7.555431906882585,62.06930009206618],[7.513916652953451,62.097917288079906],[7.486239817000696,62.0897409463617],[7.450259930262115,62.088378222741994],[7.414280043523533,62.0924663936011],[7.419815410714084,62.08020188102379],[7.403209309142431,62.05976102672827],[7.342320270046369,62.03523200157365],[7.353391004427471,62.029781107094834],[7.34785563723692,62.00797752917961]],[[7.34785563723692,62.00797752917961],[7.3284818520699915,62.00797752917961],[7.311875750498338,62.017516594517524],[7.239915977021175,62.01887931813722],[7.234380609830623,62.03386927795394],[7.195633039496766,62.03114383071454],[7.203936090282593,62.025692936235735],[7.187329988710939,62.014791147278125],[7.126440949614878,62.01342842365842],[7.073854961304643,62.00934025279932],[7.08215801209047,62.00661480555991],[7.054481176137714,61.98481122764469],[6.993592137041652,61.98617395126439],[6.98252140266055,61.982085780405285],[6.960379933898347,61.9888993985038],[6.932703097945591,61.98481122764469],[6.910561629183387,61.97527216230678],[6.896723211207009,61.982085780405285],[6.849672590087325,61.97390943868708],[6.841369539301499,61.96437037334917],[6.791551234586539,61.969821267827975],[6.777712816610162,61.96028220249006],[6.750035980657406,61.95346858439156],[6.700217675942447,61.95346858439156],[6.66700547279914,61.96300764972947],[6.617187168084181,61.957556755250664],[6.5729042305597725,61.94529224267335],[6.536924343821191,61.94665496629305],[6.523085925844812,61.92893955923693],[6.500944457082609,61.923488664758125],[6.476035304725129,61.934390453715736],[6.476035304725129,61.94120407181425],[6.428984683605445,61.95210586077186],[6.426217000010169,61.979360333165886],[6.404075531247965,61.98617395126439],[6.373631011699935,61.977997609546186],[6.35148954293773,61.96300764972947],[6.309974289008597,61.958919478870364],[6.312741972603873,61.96573309696887],[6.235246831936158,61.991624845743196],[6.257388300698363,62.00525208194021],[6.182660843625923,62.01070297641902],[6.171590109244821,61.9943502929826],[6.132842538910964,61.9875366748841],[6.141145589696791,61.97390943868708],[6.113468753744035,61.96437037334917],[6.08579191779128,61.96164492610977],[6.063650449029075,61.968458544208275],[6.035973613076321,61.95619403163096],[6.01106446071884,61.97527216230678],[5.9916906755519115,61.979360333165886],[5.964013839599157,61.9943502929826],[5.939104687241677,61.9888993985038],[5.916963218479473,61.9957130166023],[5.861609546573963,61.977997609546186],[5.803488191073176,61.96573309696887],[5.784114405906247,61.97254671506738],[5.7536698863582165,61.97254671506738],[5.750902202762941,61.979360333165886],[5.723225366810186,61.980723056785585],[5.703851581643257,61.968458544208275],[5.670639378499951,61.97390943868708],[5.618053390189716,61.96573309696887],[5.557164351093654,61.96028220249006],[5.476901526830664,61.98617395126439],[5.443689323687357,61.97390943868708],[5.4658307924495615,61.992987569362896],[5.501810679188144,62.00661480555991],[5.48520457761649,62.014791147278125],[5.507346046378695,62.05431013224946],[5.501810679188144,62.06657464482677],[5.360658815829091,62.12244631323453],[5.357891132233816,62.16877891630438],[5.216739268874765,62.261444122444075],[5.0562136203487835,62.31050217275333],[4.815425147559813,62.3827265245975]],[[4.815425147559813,62.3827265245975],[4.903991022608629,62.44541181110377],[4.937203225751936,62.46585266539929],[5.036839835181855,62.51627343932824],[5.5239521479503475,62.75611279639569],[5.670639378499951,62.82697442462016],[5.822861976240104,62.89783605284463],[5.977852257575535,62.96733495744941],[6.058115081838524,62.995952153463136],[6.6227225352747325,63.18809618384103],[6.719591461109376,63.219438827094166],[6.838601855706223,63.26032053568521],[6.932703097945591,63.31755492771267],[7.109834848043224,63.429298264528185],[7.165188519948735,63.46200363140102],[7.358926371618022,63.58056058631504],[7.461330664643217,63.655510385398614],[7.646765465526677,63.768616445833835]],[[7.646765465526677,63.768616445833835],[8.009332016507772,63.64869676730011],[8.10896862593769,63.59827599337116],[8.20860523536761,63.46336635502072],[8.23904975491564,63.42384737004938],[8.34422173153611,63.359799359923414],[8.432787606584927,63.38841655593714],[8.529656532419569,63.407494686612964],[8.742768169255786,63.4470136715843],[8.762141954422715,63.41430830471147],[8.803657208351847,63.40204379213416],[8.798121841161297,63.38569110869774]],[[8.798121841161297,63.38569110869774],[8.79535415756602,63.38569110869774]],[[8.79535415756602,63.38569110869774],[8.798121841161297,63.372063872500725],[8.845172462280981,63.36661297802192],[8.867313931043185,63.370701148881025],[8.892223083400665,63.3529857418249],[8.867313931043185,63.32845671667028],[8.864546247447908,63.29711407341715],[8.847940145876255,63.29030045531864],[8.8202633099235,63.268496877403415],[8.828566360709328,63.243967852248794],[8.861778563852633,63.231703339671476],[8.861778563852633,63.219438827094166],[8.836869411495154,63.21535065623506],[8.8202633099235,63.194909801939545],[8.762141954422715,63.18945890746073],[8.670808395778622,63.18673346022133],[8.568404102753426,63.17174350040462],[8.482605911299887,63.149939922489395],[8.371898567488866,63.148577198869695],[8.333150997155009,63.15811626420761],[8.26395890727312,63.1540280933485],[8.150483879866822,63.14312630439089],[8.103433258747138,63.12949906819387],[8.150483879866822,63.09543097770134],[8.203069868177058,63.02320662585716],[8.24458512210619,63.01230483689955],[8.297171110416425,63.03819658567388],[8.327615629964455,63.045010203772385],[8.338686364345559,63.035471138434474],[8.380201618274691,63.0531865454906],[8.402343087036897,63.057274716349696],[8.4244845557991,63.046372927392085],[8.438322973775477,63.0518238218709],[8.438322973775477,63.06545105806791],[8.482605911299887,63.079078294264924],[8.501979696466815,63.04909837463149],[8.526888848824296,63.057274716349696],[8.648666927016418,63.07226467616641],[8.651434610611695,63.06408833444821],[8.687414497350275,63.07362739978612],[8.73446511846996,63.094068254081634],[8.775980372399093,63.10769549027865],[8.773212688803817,63.11178366113776],[8.806424891947124,63.126773620954474],[8.834101727899878,63.126773620954474],[8.859010880257358,63.114509108377156],[8.897758450591216,63.12268545009537],[8.911596868567592,63.11723455561656],[8.96971822406838,63.13358723905298],[8.994627376425859,63.103607319419545],[8.958647489687277,63.092705530461934],[8.972485907663653,63.07226467616641],[9.014001161592788,63.07362739978612],[9.052748731926645,63.089980083222535],[9.083193251474675,63.089980083222535],[9.105334720236879,63.03819658567388],[9.105334720236879,63.02865752033597],[9.15515302495184,63.01503028413896]],[[9.15515302495184,63.01503028413896],[9.152385341356563,63.01503028413896]],[[9.152385341356563,63.01503028413896],[9.141314606975461,63.01503028413896]],[[9.141314606975461,63.01503028413896],[9.141314606975461,63.01503028413896]],[[9.141314606975461,63.01503028413896],[9.149617657761288,63.01503028413896]],[[9.149617657761288,63.01503028413896],[9.149617657761288,63.01503028413896]],[[9.149617657761288,63.01503028413896],[9.152385341356563,63.01503028413896]],[[9.15515302495184,63.01503028413896],[9.152385341356563,63.00821666604045]],[[9.152385341356563,63.00821666604045],[9.149617657761288,63.00821666604045]],[[9.149617657761288,63.00821666604045],[9.146849974166013,62.995952153463136],[9.177294493714044,62.99322670622373],[9.171759126523494,62.985050364505526],[9.149617657761288,62.99186398260403]],[[9.149617657761288,62.99186398260403],[9.149617657761288,62.99186398260403]],[[9.149617657761288,62.99186398260403],[9.116405454617983,62.976874022787314],[9.11087008742743,62.963246786590304],[9.12470850540381,62.94553137953418],[9.121940821808533,62.93462959057657],[9.177294493714044,62.916914183520454],[9.202203646071524,62.92509052523866],[9.263092685167585,62.92509052523866],[9.307375622691993,62.904649670943144],[9.312910989882544,62.89102243474613],[9.285234153929789,62.87739519854911],[9.332284775049473,62.8624052387324],[9.323981724263646,62.85150344977479],[9.323981724263646,62.809259017564045],[9.329517091454196,62.798357228606434],[9.36549697819278,62.79426905774733],[9.146849974166013,62.75611279639569],[9.094263985855779,62.754750072775984],[9.0804255678794,62.76020096725479],[9.058284099117195,62.74657373105778],[8.986324325640032,62.74248556019867],[8.91989991935342,62.71114291694554],[8.98078895844948,62.66208486663629],[9.014001161592788,62.66344759025599],[9.11087008742743,62.60621319822853],[9.12470850540381,62.585772343933016],[9.152385341356563,62.5735078313557],[9.221577431238451,62.5748705549754],[9.243718900000657,62.55715514791928],[9.238183532810105,62.53671429362376],[9.229880482024278,62.539439740863166],[9.221577431238451,62.52172433380704],[9.2049713296668,62.520361610187344],[9.213274380452624,62.50400892675093],[9.202203646071524,62.49174441417362],[9.18559754449987,62.45767632368108],[9.199435962476247,62.448137258343166],[9.182829860904594,62.426333680427945],[9.152385341356563,62.40453010251272],[9.099799353046329,62.3813638009778],[9.061051782712472,62.37318745925959]],[[14.325185980926523,65.11907555295792],[14.344559766093454,65.16268270878837],[14.377771969236758,65.24717157320987],[14.50785309821471,65.30985685971612],[14.499550047428883,65.43386470910896],[14.499550047428883,65.52107902076985],[14.541065301358014,65.70095853857043],[14.579812871691871,65.75001658887967],[14.624095809216282,65.81133915176625],[14.585348238882425,65.90127891066653],[14.574277504501321,65.958513302694],[14.557671402929667,66.00212045852444],[14.529994566976914,66.09614838828384],[14.516156149000537,66.13294192601577],[14.684984848312343,66.13839282049459],[14.864884282005253,66.14656916221278],[15.036480664912336,66.15338278031129],[15.30494597365406,66.23242075025398],[15.48484540734697,66.28284152418293],[15.443330153417836,66.36869311222412],[15.376905747131225,66.48452461989874],[15.451633204203663,66.52404360487009],[15.62046190351547,66.59490523309455],[15.653674106658777,66.61807153462948],[15.767149134065075,66.70528584629037],[15.994099188877666,66.87290085151363],[16.038382126402077,66.91241983648499],[16.193372407737506,66.98191874108976],[16.362201107049312,67.03642768587781],[16.387110259406793,67.04596675121572],[16.389877943002066,67.08412301256736],[16.403716360978446,67.20540541472079],[16.293009017167424,67.28989427914227],[16.212746192904433,67.34849139478943],[16.151857153808372,67.39073582700017],[16.09096811471231,67.43570570645032],[16.157392520998922,67.5188318472521],[16.284705966381598,67.52837091259002],[16.40648404457372,67.53382180706882],[16.495049919622538,67.59378164633569],[16.5559389587186,67.64692786750405],[16.58084811107608,67.67963323437688],[16.61682799781466,67.73686762640433],[16.638969466576864,67.76684754603777],[16.738606076006782,67.91402169696552],[16.785656697126466,67.93037438040193],[16.954485396438276,67.98488332519],[17.181435451250866,68.05029405893566],[17.25339522472803,68.10207755648432],[17.28107206068079,68.11843023992073],[17.599355674137474,68.05301950617506],[17.665780080424085,68.03802954635835],[17.790325842211484,68.0012360086264],[17.901033186022506,67.96989336537328],[18.020043580619355,68.0802739785691],[18.094771037691793,68.14568471231476],[18.150124709597304,68.19883093348311],[18.1279832408351,68.29422158686221],[18.11414482285872,68.34055418993205],[18.100306404882343,68.40596492367773],[18.11414482285872,68.46592476294458],[18.125215557239823,68.53678639116906]],[[18.125215557239823,68.53678639116906],[18.08370030331069,68.5640408635631],[18.022811264214628,68.60901074301323],[17.696224599972115,68.59674623043593],[17.546769685827236,68.59674623043593],[17.339193416181573,68.56267813994339],[17.236789123156377,68.55858996908428],[17.173132400465043,68.55858996908428],[17.051354322272918,68.56540358718279],[16.865919521389458,68.57221720528129],[16.782889013531193,68.53678639116906],[16.76628291195954,68.53542366754937],[16.71092924005403,68.50953191877502],[16.62236336500521,68.49863012981743],[16.569777376694976,68.50271830067652],[16.553171275123322,68.49045378809922],[16.56147432590915,68.468650210184],[16.553171275123322,68.45911114484608],[16.567009693099703,68.43458211969146],[16.49781760321781,68.42776850159295],[16.412019411764273,68.40596492367773],[16.287473649976874,68.39778858195952],[16.162927888189476,68.37189683318519],[16.03007907561625,68.37734772766399],[16.04114980999735,68.42231760711414],[16.1601602045942,68.52179643135234],[16.12694800145089,68.52588460221145],[16.12418031785562,68.53951183840846],[16.077129696735934,68.53678639116906],[16.052220544378454,68.52997277307055],[16.007937606854046,68.54087456202816],[15.996866872472943,68.55586452184488],[16.024543708425696,68.56540358718279],[16.021776024830423,68.57903082337981],[15.996866872472943,68.58448171785861],[16.007937606854046,68.58993261233742],[15.963654669329635,68.61446163749204],[15.930442466186332,68.59947167767533],[15.930442466186332,68.58448171785861],[15.905533313828851,68.56267813994339],[15.888927212257197,68.55858996908428],[15.897230263043024,68.54905090374638],[15.891694895852474,68.53406094392966],[15.828038173161136,68.53406094392966],[15.805896704398933,68.51634553687354],[15.758846083279249,68.50408102429623],[15.756078399683972,68.49181651171891],[15.703492411373738,68.482277446381],[15.686886309802084,68.47273838104309],[15.692421676992634,68.46456203932489],[15.653674106658777,68.45229752674757],[15.648138739468227,68.44412118502936],[15.61492653632492,68.45502297398697],[15.631532637896573,68.4713756574234],[15.650906423063503,68.47273838104309],[15.67581557542098,68.4850028936204],[15.661977157444603,68.49863012981743],[15.66474484103988,68.51225736601444],[15.653674106658777,68.52588460221145],[15.628764954301296,68.52861004945085],[15.61492653632492,68.54360000926756],[15.60939116913437,68.56267813994339],[15.592785067562716,68.5708544816616],[15.631532637896573,68.5749426525207],[15.667512524635153,68.58584444147832],[15.67581557542098,68.59674623043593],[15.64537105587295,68.63217704454816],[15.661977157444603,68.63217704454816],[15.70072472777846,68.64852972798458],[15.736704614517041,68.64035338626637],[15.778219868446175,68.65125517522398],[15.778219868446175,68.65806879332249],[15.803129020803656,68.67714692399831],[15.778219868446175,68.68804871295592],[15.792058286422552,68.69895050191353],[15.783755235636725,68.70848956725143],[15.803129020803656,68.71121501449085],[15.88062416147137,68.70848956725143],[15.888927212257197,68.72756769792726],[15.935977833376882,68.73029314516666],[15.971957720115462,68.73983221050457],[15.980260770901289,68.75073399946218],[16.00516992325877,68.75618489394098],[16.046685177187904,68.75754761756069],[16.024543708425696,68.81341928596845],[15.938745516972155,68.81205656234874],[15.930442466186332,68.82568379854575],[15.947048567757982,68.85157554732008],[16.002402239663493,68.88291819057322],[16.027311392020973,68.90880993934755],[16.113109583474515,68.93197624088246],[16.052220544378454,69.00828876358575],[16.12141263426034,69.0491704721768],[16.18506935695168,69.09005218076783],[16.293009017167424,69.1527374672741],[16.31238280233435,69.16636470347112],[16.4313931969312,69.31217613077916],[16.51719138838474,69.41574312587647],[16.254261446833567,69.59698536729675]],[[16.254261446833567,69.59698536729675],[15.739472298112318,69.50840833201616],[15.63430032149185,69.48115385962214],[15.288339872082407,69.38848865348244],[15.155491059509181,69.3516951157505],[15.022642246935956,69.31626430163827],[14.815065977290292,69.2590299096108],[14.751409254598954,69.23858905531529],[14.419287223165892,69.09959124610575],[14.344559766093454,69.06688587923291],[13.948781011969054,68.89790815038994],[13.865750504110785,68.861114612658],[13.827002933776928,68.83794831112307],[13.72183095715646,68.74664582860308],[13.492113218748589,68.60492257215412],[13.38694124212812,68.54087456202816],[13.265163163935998,68.46319931570518],[13.215344859221037,68.45093480312786],[13.005000905980097,68.39370041110041],[12.833404523073014,68.34600508441086],[12.766980116786403,68.32556423011535],[12.733767913643096,68.31193699391832],[12.6202928862368,68.25879077274998],[12.59538373387932,68.24380081293326],[12.520656276806882,68.1879291445255],[12.418251983781687,68.11570479268133],[12.288170854803734,68.01758869206283],[12.271564753232084,67.9998732850067],[12.127645206277755,67.82271921444553],[11.986493342918703,67.78183750585448],[11.706957299795874,67.6987113650527],[11.621159108342333,67.67145689265867],[11.46893651060218,67.6155852242509],[11.427421256673046,67.59514436995539],[11.391441369934466,67.57197806842046],[11.366532217576985,67.54608631964614],[11.313946229266751,67.47113652056257],[11.305643178480924,67.45478383712614],[11.302875494885647,67.41935302301391],[11.316713912862026,67.38392220890167],[11.358229166791158,67.33077598773332],[11.668209729462017,67.0159868315823],[11.85917989753603,66.81566645948618],[11.65437131148564,66.72436397696619],[11.607320690365956,66.69983495181157],[11.57410848722265,66.67530592665693],[11.521522498912415,66.62488515272798],[11.297340127695097,66.40412392633635],[11.092531541644709,66.19971538338115],[11.070390072882503,66.17246091098711],[10.954147361880931,65.9707778152713],[10.901561373570697,65.88356350361042],[10.799157080545502,65.70232126219014],[10.608186912471492,65.50336361371373],[10.577742392923462,65.4706582468409]],[[10.577742392923462,65.4706582468409],[11.020571768167546,65.39434572413761],[11.02333945176282,65.39434572413761],[11.399744420720292,65.29622962351911],[11.485542612173834,65.23626978425224],[11.801058542035243,65.16540815602778],[11.837038428773825,65.15859453792928],[11.91453356944154,65.15995726154897],[11.939442721799018,65.14905547259136],[11.936675038203745,65.12725189467614],[11.958816506965949,65.11635010571852],[11.925604303822642,65.10136014590181],[11.917301253036815,65.07955656798659],[11.878553682702957,65.06592933178958],[11.942210405394295,65.06729205540927],[11.958816506965949,65.0781938443669],[11.98372565932343,65.06865477902898],[12.05015006561004,65.06729205540927],[12.036311647633664,65.04412575387435],[12.05015006561004,65.01414583424092],[12.069523850776969,65.01142038700152],[12.086129952348623,65.00051859804391],[12.113806788301378,65.00460676890302],[12.130412889873032,64.9991558744242],[12.119342155491928,65.01278311062121],[12.133180573468305,65.02232217595913],[12.160857409421062,65.00596949252271],[12.191301928969093,64.9991558744242],[12.18023119458799,64.9828031909878],[12.20514034694547,64.97190140203017],[12.282635487613184,64.96236233669227],[12.396110515019483,64.9923422563257],[12.45146418692499,64.9882540854666],[12.504050175235228,64.97735229650898],[12.528959327592705,64.98007774374838],[12.562171530736013,64.99097953270599],[12.581545315902943,64.98689136184689],[12.587080683093493,64.96236233669227],[12.628595937022627,64.93919603515734],[12.653505089380104,64.94600965325586],[12.714394128476169,64.95282327135436],[12.766980116786403,64.94055875877704],[12.791889269143883,64.95282327135436],[12.77528316757223,64.97598957288928],[12.908131980145455,64.97462684926958],[12.933041132502932,64.98416591460749],[12.946879550479313,65.00051859804391],[12.910899663740729,65.01687128148032],[12.908131980145455,65.02913579405764],[12.93027344890766,65.03867485939554],[12.96625333564624,65.03322396491674],[12.99669785519427,65.06865477902898],[13.052051527099781,65.07410567350779],[13.085263730243089,65.10953648762002],[13.1516881365297,65.11635010571852],[13.303910734269856,65.10272286952151],[13.411850394485601,65.09863469866241],[13.528093105487173,65.11635010571852],[13.627729714917091,65.10544831676091],[13.707992539180083,65.11226193485942],[13.78825536344307,65.11089921123973],[13.829770617372205,65.11771282933823],[13.9321749103974,65.11907555295792],[13.948781011969054,65.12725189467614],[14.012437734660388,65.12997734191553],[14.065023722970626,65.12180100019734],[14.161892648805267,65.13951640725345],[14.189569484758024,65.13134006553524],[14.253226207449359,65.13134006553524],[14.261529258235186,65.12316372381703],[14.29750914497377,65.11498738209883],[14.325185980926523,65.11907555295792]],[[10.594348494495113,58.76060714343116],[10.638631432019523,58.892791334542196],[10.91816747514235,58.941849384851444],[10.981824197833689,58.96092751552727],[11.067622389287228,58.97728019896368],[11.092531541644709,58.9922701587804],[11.117440694002187,59.01543646031532],[11.15342058074077,59.07948447044129],[11.225380354217933,59.0876608121595],[11.28903707690927,59.09992532473681],[11.338855381624231,59.114915284553526],[11.369299901172262,59.09856260111711],[11.39420905352974,59.06994540510338],[11.41358283869667,59.03996548546995],[11.430188940268323,59.02770097289264],[11.46340114341163,58.9909074351607],[11.460633459816354,58.92413397779533],[11.455098092625803,58.91595763607712],[11.457865776221077,58.8900658873028],[11.488310295769109,58.891428610922496],[11.529825549698241,58.87643865110578],[11.551967018460445,58.898242229021],[11.57410848722265,58.88870316368309],[11.632229842723437,58.90778129435891],[11.651603627890365,58.90641857073921],[11.657138995080917,58.93231031951354],[11.690351198224223,58.95683934466816],[11.68481583103367,58.986819264301595],[11.698654249010048,59.000446500498605],[11.709724983391151,59.033151867371444],[11.742937186534459,59.057680892526065],[11.762310971701385,59.07948447044129],[11.776149389677764,59.0862980885398],[11.776149389677764,59.10673894283532],[11.765078655296662,59.12172890265203],[11.778917073273039,59.13671886246875],[11.773381706082489,59.170786952961286],[11.781684756868316,59.20621776707352],[11.798290858439968,59.22393317412964],[11.828735377987998,59.23892313394635],[11.814896960011621,59.34521557628307],[11.778917073273039,59.386097284874104],[11.773381706082489,59.41471448088784],[11.762310971701385,59.42834171708485],[11.754007920915559,59.4787624910138],[11.72909876855808,59.511467857886636],[11.690351198224223,59.58914310420962],[11.698654249010048,59.608221234885434],[11.718028034176978,59.62321119470215]],[[11.718028034176978,59.62321119470215],[11.718028034176978,59.654553837955284],[11.701421932605324,59.666818350532594],[11.62392679193761,59.677720139490205],[11.626694475532886,59.665455626912895],[11.57410848722265,59.64365204899767],[11.543663967674618,59.64365204899767],[11.532593233293518,59.63820115451887],[11.543663967674618,59.619123023843045],[11.49384566295966,59.59323127506872],[11.477239561388007,59.60004489316723],[11.477239561388007,59.62457391832185],[11.50491639734076,59.62457391832185],[11.502148713745488,59.63547570727946],[11.480007244983282,59.64910294347648],[11.457865776221077,59.6722692450114],[11.41911820588722,59.673631968631106],[11.366532217576985,59.69816099378573],[11.372067584767537,59.72814091341916],[11.344390748814781,59.75403266219349],[11.300107811290374,59.75812083305259],[11.25305719017069,59.770385345629904],[11.239218772194311,59.75266993857378],[11.244754139384863,59.74313087323588],[11.22814803781321,59.70770005912364],[11.230915721408484,59.68317103396901],[11.158955947931322,59.68317103396901],[11.134046795573841,59.70224916464483],[11.100834592430534,59.69271009930692],[11.10360227602581,59.70361188826453],[11.056551654906126,59.69816099378573],[11.04271323692975,59.69134737568722],[11.012268717381719,59.70088644102513],[10.970753463452585,59.70497461188423],[10.954147361880931,59.6722692450114],[10.984591881428962,59.66136745605379],[10.979056514238412,59.65182839071588],[10.932005893118728,59.63956387813857],[10.934773576714004,59.630024812800656],[10.909864424356524,59.628662089180956],[10.907096740761247,59.62048574746275],[10.879419904808493,59.619123023843045],[10.890490639189595,59.606858511265735],[10.865581486832115,59.605495787646035],[10.86834917042739,59.59323127506872],[10.843440018069911,59.58641765697021],[10.846207701665186,59.5687022499141],[10.807460131331329,59.56461407905499],[10.771480244592748,59.55234956647768],[10.785318662569125,59.546898671998875],[10.785318662569125,59.53190871218216],[10.771480244592748,59.511467857886636],[10.779783295378575,59.49511517445022],[10.746571092235268,59.49238972721081],[10.752106459425818,59.4828506618729],[10.718894256282512,59.473311596535],[10.710591205496685,59.489664279971414],[10.680146685948655,59.488301556351715],[10.65800521718645,59.51691875236544],[10.616489963257319,59.53463415942156],[10.541762506184877,59.45695891309858]],[[10.541762506184877,59.45695891309858],[10.536227138994327,59.432429887943954],[10.544530189780154,59.41198903364843],[10.583277760114012,59.392910902972616],[10.594348494495113,59.373832772296794],[10.594348494495113,59.35611736524068],[10.577742392923462,59.34112740542396],[10.591580810899838,59.29752024959352],[10.591580810899838,59.268903053579784],[10.641399115614798,59.20349231983412],[10.655237533591176,59.19259053087651],[10.6524698499959,59.13808158608845],[10.622025330447869,59.112189837314126],[10.674611318758103,59.045416379948755],[10.660772900781726,59.02497552565323],[10.627560697638419,58.95411389742876],[10.594348494495113,58.76060714343116]],[[11.8398061123691,59.841246973854375],[11.850876846750204,59.831707908516464],[11.875785999107682,59.828982461277064],[11.925604303822642,59.794914370784525],[11.933907354608468,59.75812083305259],[11.922836620227367,59.75130721495408],[11.933907354608468,59.74040542599647],[11.939442721799018,59.69407282292662],[11.889624417084061,59.69271009930692],[11.856412213940754,59.64910294347648],[11.778917073273039,59.64365204899767],[11.718028034176978,59.62321119470215]],[[10.541762506184877,59.45695891309858],[10.455964314731336,59.4801252146335],[10.39230759204,59.514193305126035],[10.397842959230552,59.53054598856246]],[[10.397842959230552,59.53054598856246],[10.417216744397479,59.56733952629439],[10.411681377206929,59.58505493335051],[10.422752111588032,59.60004489316723],[10.411681377206929,59.617760300223345],[10.425519795183305,59.62593664194156],[10.408913693611654,59.64501477261737],[10.411681377206929,59.666818350532594],[10.364630756087244,59.69816099378573],[10.309277084181733,59.70497461188423],[10.289903299014806,59.71587640084185],[10.320347818562837,59.725415466179754],[10.320347818562837,59.75266993857378],[10.31204476777701,59.769022622010205],[10.331418552943939,59.781287134587515],[10.323115502158112,59.793551647164826],[10.356327705301418,59.80309071250274],[10.350792338110868,59.839884250234675],[10.331418552943939,59.852148762811986],[10.328650869348664,59.875315064346914],[10.350792338110868,59.876677787966614],[10.36186307249197,59.90529498398034],[10.375701490468348,59.91210860207885],[10.370166123277796,59.93254945637437],[10.34802465451559,59.948902139810784],[10.350792338110868,59.9625293760078],[10.381236857658898,59.97479388858511],[10.384004541254173,59.98160750668362],[10.419984427992755,59.98433295392302],[10.417216744397479,60.00886197907765],[10.433822845969132,60.012950149936756],[10.436590529564409,60.03066555699287],[10.478105783493541,60.03202828061257],[10.489176517874643,60.01840104441556]],[[10.599883861685665,60.131507104850776],[10.60265154528094,60.13423255209018]],[[10.60265154528094,60.13423255209018],[10.597116178090388,60.14513434104779],[10.569439342137635,60.1546734063857],[10.561136291351808,60.16557519534331],[10.494711885065193,60.17238881344182],[10.478105783493541,60.18465332601913],[10.450428947540786,60.191466944117636],[10.425519795183305,60.20645690393435],[10.372933806873071,60.22417231099047],[10.356327705301418,60.21872141651167],[10.328650869348664,60.22962320546928],[10.309277084181733,60.24461316528599],[10.320347818562837,60.26369129596181],[10.306509400586458,60.27186763768002],[10.25115572868095,60.32365113522867],[10.23731731070457,60.342729265904495],[10.198569740370713,60.37543463277733],[10.193034373180161,60.399963657931956]],[[10.193034373180161,60.399963657931956],[10.201337423965988,60.391787316213744],[10.264994146657326,60.39315003983344],[10.323115502158112,60.37270918553793],[10.34802465451559,60.36862101467882],[10.389539908444725,60.37543463277733],[10.386772224849448,60.356356502101505],[10.364630756087244,60.32773930608778],[10.384004541254173,60.31683751713017],[10.419984427992755,60.31274934627106],[10.458731998326613,60.31683751713017],[10.46703504911244,60.32228841160897],[10.54729787337543,60.32773930608778],[10.558368607756531,60.32092568798927],[10.60265154528094,60.32228841160897],[10.60265154528094,60.31547479351047],[10.630328381233696,60.32501385884838],[10.705055838306134,60.32910202970748],[10.710591205496685,60.33864109504539],[10.727197307068339,60.32773930608778],[10.763177193806921,60.31411206989077],[10.865581486832115,60.31411206989077],[10.879419904808493,60.31820024074987],[10.934773576714004,60.3468174367636],[10.901561373570697,60.378160080016734],[10.904329057165974,60.39587548707285],[10.818530865712432,60.42721813032598],[10.768712560997471,60.42585540670628],[10.721661939877787,60.43403174842449],[10.671843635162828,60.43403174842449],[10.688449736734482,60.447658984621505],[10.710591205496685,60.45447260272001],[10.691217420329757,60.49262886407165],[10.710591205496685,60.496717034930754],[10.710591205496685,60.52124606008538],[10.727197307068339,60.517157889226276],[10.760409510211645,60.49399158769135],[10.835136967284084,60.47900162787464],[10.943076627499831,60.47491345701553],[10.945844311095104,60.48854069321254],[11.053783971310851,60.51443244198687],[11.09806690883526,60.519883336465675],[11.09806690883526,60.5430496380006],[11.117440694002187,60.58393134659164],[11.15342058074077,60.60573492450687],[11.214309619836833,60.563490492296125],[11.219844987027383,60.5416869143809],[11.20877425264628,60.504893376648965],[11.23368340500376,60.50080520578986],[11.275198658932894,60.48445252235344],[11.297340127695097,60.46809983891703],[11.341623065219505,60.458560773579116],[11.355461483195883,60.4462962610018],[11.388673686339189,60.402689105171355],[11.402512104315567,60.37543463277733],[11.41911820588722,60.367258291059116],[11.432956623863598,60.34000381866509],[11.452330409030527,60.331827476946884],[11.47447187779273,60.331827476946884],[11.50491639734076,60.31138662265136],[11.51875481531714,60.295033939214946],[11.587946905199027,60.273230361299724],[11.59901763958013,60.2527895070042],[11.579643854413202,60.237799547187485],[11.582411538008476,60.19964328583585],[11.560270069246272,60.18465332601913],[11.560270069246272,60.17647698430092],[11.585179221603752,60.17375153706152],[11.590714588794302,60.1601243008645],[11.62392679193761,60.14240889380839],[11.634997526318712,60.131507104850776],[11.673745096652569,60.11515442141436],[11.734634135748632,60.09607629073854],[11.778917073273039,60.08926267264003],[11.789987807654141,60.071547265583916],[11.789987807654141,60.04838096404899],[11.817664643606896,60.0579200293869],[11.823200010797446,60.052469134908094],[11.823200010797446,60.02112649165496],[11.837038428773825,60.017038320795855],[11.837038428773825,60.002048360979146],[11.80936159282107,59.98842112478213],[11.792755491249416,59.955715757909296],[11.80936159282107,59.947539416191084],[11.820432327202173,59.92982400913497],[11.80382622563052,59.92028494379706],[11.80382622563052,59.898481365881835],[11.820432327202173,59.89166774778333],[11.823200010797446,59.87122689348781],[11.837038428773825,59.8630505517696],[11.8398061123691,59.841246973854375]],[[7.489007500595973,60.098801737977944],[7.646765465526677,60.12741893399167],[7.765775860123525,60.11651714503406],[7.812826481243208,60.10288990883705],[7.92353382505423,60.13832072294928],[8.017635067293597,60.1546734063857],[8.059150321222731,60.16421247172361],[8.100665575151863,60.18329060239943],[8.156019247057374,60.18465332601913],[8.169857665033753,60.17375153706152],[8.186463766605405,60.17375153706152],[8.167089981438476,60.18601604963883],[8.20860523536761,60.18874149687824],[8.283332692440048,60.17511426068122],[8.31931257917863,60.17511426068122],[8.391272352655793,60.180565155160025],[8.457696758942406,60.169663366202414],[8.485373594895162,60.168300642582714],[8.568404102753426,60.17647698430092],[8.665273028588071,60.17238881344182],[8.723394384088857,60.18329060239943],[8.809192575542397,60.153310682766],[8.859010880257358,60.13968344656899],[8.9448090717109,60.10016446159764],[8.978021274854207,60.071547265583916],[8.989092009235307,60.012950149936756],[9.002930427211686,59.99659746650033],[8.986324325640032,59.98978384840183],[8.994627376425859,59.98160750668362],[9.019536528783338,59.98433295392302],[9.055516415521922,59.969342994106306],[9.063819466307747,59.9611666523881],[9.105334720236879,59.958441205148695],[9.11087008742743,59.95026486343049],[9.141314606975461,59.93800035085317],[9.180062177309319,59.92846128551527],[9.19113291169042,59.91619677293795],[9.174526810118767,59.899844089501535],[9.188365228095146,59.897118642262136],[9.180062177309319,59.86986416986811],[9.188365228095146,59.841246973854375],[9.18559754449987,59.82625701403766],[9.23541584921483,59.81126705422095],[9.252021950786482,59.81399250146035],[9.26586036876286,59.805816159742136],[9.312910989882544,59.79900254164363],[9.36549697819278,59.779924410967816],[9.343355509430575,59.75812083305259],[9.34612319302585,59.73086636065856],[9.337820142240023,59.721327295320656],[9.354426243811677,59.71860184808125],[9.332284775049473,59.69271009930692],[9.404244548526638,59.68453375758872],[9.404244548526638,59.65864200881439],[9.423618333693565,59.64092660175827],[9.442992118860495,59.60140761678693],[9.462365904027422,59.57824131525201],[9.470668954813249,59.557800460956486],[9.514951892337658,59.53872233028066],[9.4762043220038,59.499203345309326],[9.470668954813249,59.4828506618729],[9.553699462671515,59.48693883273201],[9.584143982219546,59.465135254816786],[9.58137629862427,59.455596189478875],[9.622891552553403,59.43788078242276],[9.625659236148678,59.42425354622574],[9.658871439291985,59.407900862789326],[9.703154376816393,59.41198903364843],[9.777881833888834,59.41198903364843]],[[9.777881833888834,59.41198903364843],[9.77234646669828,59.43788078242276],[9.758508048721904,59.45832163671828],[9.777881833888834,59.45695891309858],[9.811094037032138,59.46786070205619],[9.84153855658017,59.46377253119709]],[[9.84153855658017,59.46377253119709],[9.84153855658017,59.46377253119709]],[[9.84153855658017,59.46377253119709],[9.852609290961272,59.45832163671828],[9.905195279271506,59.455596189478875],[9.935639798819537,59.45968436033798]],[[9.935639798819537,59.45968436033798],[9.935639798819537,59.45968436033798]],[[9.935639798819537,59.45968436033798],[9.943942849605364,59.46786070205619],[10.021437990273078,59.46377253119709],[10.057417877011662,59.47194887291529],[10.035276408249457,59.50465423978813],[9.985458103534498,59.53190871218216],[9.94117516601009,59.56733952629439],[9.91626601365261,59.58232948611111],[9.94117516601009,59.58641765697021],[9.932872115224264,59.60277034040663],[9.979922736343948,59.619123023843045],[9.974387369153394,59.63411298365976],[9.9965288379156,59.654553837955284]],[[9.9965288379156,59.654553837955284],[9.9965288379156,59.654553837955284]],[[9.9965288379156,59.654553837955284],[10.007599572296701,59.664092903293195],[10.035276408249457,59.64501477261737],[10.087862396559693,59.64228932537797],[10.115539232512447,59.6709065213917],[10.15705448644158,59.666818350532594]],[[10.15705448644158,59.666818350532594],[10.15705448644158,59.666818350532594]],[[10.15705448644158,59.666818350532594],[10.193034373180161,59.6709065213917]],[[10.193034373180161,59.6709065213917],[10.193034373180161,59.6709065213917]],[[10.193034373180161,59.6709065213917],[10.223478892728192,59.665455626912895],[10.245620361490397,59.673631968631106],[10.300974033395907,59.669543797772],[10.320347818562837,59.66000473243409],[10.33695392013449,59.628662089180956]],[[10.33695392013449,59.628662089180956],[10.33695392013449,59.628662089180956]],[[10.33695392013449,59.628662089180956],[10.331418552943939,59.61094668212484],[10.34248928732504,59.56461407905499],[10.367398439682521,59.54281050113977]],[[10.367398439682521,59.54281050113977],[10.367398439682521,59.54281050113977]],[[10.367398439682521,59.54281050113977],[10.372933806873071,59.54144777752007]],[[10.372933806873071,59.54144777752007],[10.372933806873071,59.54144777752007]],[[10.372933806873071,59.54144777752007],[10.378469174063621,59.53872233028066]],[[10.378469174063621,59.53872233028066],[10.378469174063621,59.537359606660964]],[[10.378469174063621,59.537359606660964],[10.378469174063621,59.537359606660964]],[[10.378469174063621,59.537359606660964],[10.397842959230552,59.53054598856246]],[[10.193034373180161,60.399963657931956],[10.179195955203785,60.45310987910031],[10.176428271608508,60.48036435149434],[10.16258985363213,60.49944248217015],[10.15705448644158,60.52260878370508],[10.110003865321897,60.54577508524],[10.110003865321897,60.55667687419761],[10.093397763750243,60.55940232143702],[10.065720927797488,60.60846037174627],[10.029741041058905,60.632989396900896],[9.96608431836757,60.6384402913797],[9.910730646462058,60.634352120520596],[9.905195279271506,60.63026394966149],[9.930104431628987,60.61527398984477],[9.95224590039119,60.611185818985675],[9.938407482414814,60.600284030028064],[9.91626601365261,60.59619585916896],[9.8719830761282,60.57984317573254],[9.852609290961272,60.567578663155224],[9.844306240175445,60.58665679383105],[9.811094037032138,60.55803959781732],[9.813861720627415,60.529422401803586]],[[9.813861720627415,60.529422401803586],[9.813861720627415,60.529422401803586]],[[9.813861720627415,60.529422401803586],[9.811094037032138,60.51306971836717]],[[9.811094037032138,60.51306971836717],[9.811094037032138,60.51306971836717]],[[9.811094037032138,60.51306971836717],[9.822164771413242,60.50080520578986],[9.824932455008517,60.48308979873374]],[[9.824932455008517,60.48308979873374],[9.824932455008517,60.48308979873374]],[[9.824932455008517,60.48308979873374],[9.827700138603792,60.47900162787464]],[[9.827700138603792,60.47900162787464],[9.827700138603792,60.47900162787464]],[[9.827700138603792,60.47900162787464],[9.827700138603792,60.47763890425493]],[[9.827700138603792,60.47763890425493],[9.827700138603792,60.47763890425493]],[[9.827700138603792,60.47763890425493],[9.830467822199068,60.45583532633971],[9.797255619055761,60.45447260272001],[9.669942173673087,60.48445252235344],[9.609053134577026,60.50080520578986],[9.620123868958128,60.506256100268665],[9.606285450981751,60.5389614671415],[9.589679349410098,60.53487329628239],[9.478972005599076,60.529422401803586],[9.448527486051045,60.5444123616203],[9.418082966503015,60.5471378088597],[9.412547599312465,60.55940232143702]],[[9.412547599312465,60.55940232143702],[9.412547599312465,60.55940232143702]],[[9.412547599312465,60.55940232143702],[9.412547599312465,60.58529407021135],[9.434689068074668,60.600284030028064],[9.42085065009829,60.613911266225074],[9.387638446954984,60.61663671346448],[9.36549697819278,60.63026394966149],[9.36549697819278,60.64934208033731],[9.354426243811677,60.66569476377373],[9.318446357073096,60.682047447210145],[9.318446357073096,60.69976285426626],[9.329517091454196,60.70793919598447],[9.332284775049473,60.729742773899694],[9.304607939096718,60.74473273371641],[9.290769521120339,60.76244814077253],[9.216042064047901,60.77062448249074],[9.180062177309319,60.79379078402566],[9.146849974166013,60.80741802022268],[9.091496302260502,60.81559436194088],[9.016768845188064,60.83876066347581]],[[9.016768845188064,60.83876066347581],[9.016768845188064,60.83876066347581]],[[9.016768845188064,60.83876066347581],[8.991859692830584,60.84284883433491],[8.953112122496726,60.856476070531926],[8.91989991935342,60.86328968863043],[8.90052613418649,60.87827964844715],[8.894990766995939,60.894632331883564],[8.81472794273295,60.90008322636237],[8.742768169255786,60.917798633418485],[8.654202294206968,60.93551404047461],[8.654202294206968,60.94096493495341],[8.620990091063662,60.951866723911024],[8.632060825444764,60.962768512868635],[8.607151673087284,60.98184664354446],[8.543494950395948,61.010463839558184],[8.510282747252642,61.013189286797584],[8.510282747252642,61.018640181276396],[8.44385834096603,61.020002904896096],[8.4244845557991,61.02954197023401],[8.366363200298313,61.04862010090982],[8.308241844797529,61.092227256740266],[8.252888172892018,61.07451184968415]],[[8.252888172892018,61.07451184968415],[8.21414060255816,61.05407099538863],[8.23904975491564,61.04998282452952],[8.283332692440048,61.033630141093106],[8.258423540082568,61.009101115938485],[8.227979020534537,61.009101115938485],[8.21967596974871,61.00092477422027],[8.233514387725089,60.99411115612177],[8.225211336939262,60.97094485458685],[8.18369608301013,60.96958213096714],[8.164322297843201,60.98048391992475],[8.131110094699896,60.96821940734744],[8.039776536055802,60.893269608263864],[7.981655180555016,60.90144594998207],[7.934604559435332,60.89735777912297],[7.879250887529821,60.924612251517],[7.851574051577066,60.92052408065789],[7.801755746862106,60.89735777912297],[7.704886821027463,60.79242806040596],[7.721492922599117,60.789702613166554],[7.727028289789667,60.76108541715283],[7.704886821027463,60.739281839237606],[7.685513035860534,60.7324682211391],[7.613553262383371,60.74473273371641],[7.439189195881013,60.66024386929492],[7.547128856096759,60.65751842205552],[7.635694731145575,60.632989396900896],[7.621856313169197,60.59619585916896],[7.63846241474085,60.55940232143702],[7.6744423014794325,60.53623601990209],[7.7325636569802185,60.519883336465675],[7.693816086646361,60.42585540670628],[7.682745352265259,60.35908194934091],[7.6744423014794325,60.293671215595246],[7.610785578788095,60.24461316528599],[7.58310874283534,60.17511426068122],[7.489007500595973,60.098801737977944]],[[7.34785563723692,62.00797752917961],[7.381067840380227,62.00252663470081],[7.397673941951879,61.977997609546186],[7.3893708911660525,61.933027730096036],[7.414280043523533,61.892146021505],[7.411512359928257,61.85807793101246],[7.486239817000696,61.781765408309184],[7.513916652953451,61.75996183039396],[7.513916652953451,61.72725646352112],[7.572038008454237,61.735432805239334],[7.643997781931402,61.74224642333784],[7.685513035860534,61.74224642333784],[7.751937442147147,61.75451093591515],[7.840503317195964,61.74360914695754],[7.9069277234825766,61.72180556904232],[7.9041600398873015,61.67956113683157],[7.895856989101475,61.64413032271934],[7.931836875840057,61.6018858905086],[7.942907610221159,61.584170483452475],[7.948442977411709,61.55691601105845],[8.012099700103047,61.54056332762203],[8.114503993128242,61.522847920565916],[8.194766817391232,61.547376945720536],[8.261191223677844,61.533749709523526],[8.288868059630598,61.488779830073376],[8.302706477606977,61.48060348835517],[8.322080262773905,61.45743718682024],[8.275029641654221,61.431545438045916],[8.21414060255816,61.430182714426216],[8.191999133795957,61.43835905614443],[8.150483879866822,61.42609454356711],[8.15878693065265,61.38930100583518]],[[8.15878693065265,61.38930100583518],[8.15878693065265,61.38930100583518]],[[8.15878693065265,61.38930100583518],[8.161554614247926,61.36749742791995],[8.180928399414853,61.35659563896234],[8.21967596974871,61.351144744483534]],[[8.21967596974871,61.351144744483534],[8.21967596974871,61.351144744483534]],[[8.21967596974871,61.351144744483534],[8.227979020534537,61.34160567914563]],[[8.227979020534537,61.34160567914563],[8.227979020534537,61.34160567914563]],[[8.227979020534537,61.34160567914563],[8.25012048929674,61.338880231906224],[8.241817438510916,61.32525299570921]],[[8.241817438510916,61.32525299570921],[8.241817438510916,61.32525299570921]],[[8.241817438510916,61.32525299570921],[8.23904975491564,61.3198021012304]],[[8.23904975491564,61.3198021012304],[8.23904975491564,61.3198021012304]],[[8.23904975491564,61.3198021012304],[8.236282071320364,61.3198021012304]],[[8.236282071320364,61.3198021012304],[8.236282071320364,61.3198021012304]],[[8.236282071320364,61.3198021012304],[8.21967596974871,61.317076653991]],[[8.21967596974871,61.317076653991],[8.21967596974871,61.317076653991]],[[8.21967596974871,61.317076653991],[8.21967596974871,61.317076653991]],[[8.21967596974871,61.317076653991],[8.222443653343987,61.30753758865309],[8.186463766605405,61.302086694174285]],[[8.186463766605405,61.302086694174285],[8.186463766605405,61.303449417793985]],[[8.186463766605405,61.303449417793985],[8.172625348629026,61.300723970554586]],[[8.172625348629026,61.300723970554586],[8.172625348629026,61.300723970554586]],[[8.172625348629026,61.300723970554586],[8.169857665033753,61.300723970554586]],[[8.169857665033753,61.300723970554586],[8.169857665033753,61.300723970554586]],[[8.169857665033753,61.300723970554586],[8.167089981438476,61.29799852331518]],[[8.167089981438476,61.29799852331518],[8.164322297843201,61.29799852331518]],[[8.164322297843201,61.29799852331518],[8.144948512676272,61.28164583987876]],[[8.144948512676272,61.28164583987876],[8.142180829080996,61.28164583987876]],[[8.142180829080996,61.28164583987876],[8.133877778295169,61.27755766901966]],[[8.133877778295169,61.27755766901966],[8.133877778295169,61.27619494539996]],[[8.133877778295169,61.27755766901966],[8.136645461890446,61.27619494539996]],[[8.136645461890446,61.27619494539996],[8.133877778295169,61.27619494539996]],[[8.136645461890446,61.27619494539996],[8.13941314548572,61.27483222178026]],[[8.13941314548572,61.27483222178026],[8.13941314548572,61.27483222178026]],[[8.13941314548572,61.27483222178026],[8.142180829080996,61.27483222178026]],[[8.142180829080996,61.27483222178026],[8.131110094699896,61.266655880062046],[8.070221055603833,61.24894047300593],[8.050847270436904,61.232587789569514],[8.006564332912497,61.23531323680891],[8.031473485269975,61.2216860006119],[8.053614954032179,61.220323276992204],[8.050847270436904,61.20942148803459],[8.061918004818006,61.19306880459817],[8.045311903246354,61.18080429202086],[8.050847270436904,61.173990673922354],[8.075756422794385,61.17944156840116],[8.084059473580211,61.161726161345044],[8.125574727509342,61.1222071763737],[8.144948512676272,61.10994266379639],[8.225211336939262,61.08813908588117],[8.252888172892018,61.07451184968415]],[[11.8398061123691,59.841246973854375],[11.88408904989351,59.85623693367109],[11.88408904989351,59.87258961710751],[11.917301253036815,59.87258961710751],[11.922836620227367,59.88349140606512],[11.98372565932343,59.899844089501535],[12.052917749205317,59.886216853304525],[12.124877522682478,59.89439319502273],[12.155322042230512,59.886216853304525],[12.17469582739744,59.890305024163624],[12.23004949930295,59.92709856189556],[12.340756843113972,59.96525482324721],[12.396110515019483,60.015675597176156],[12.448696503329717,60.038841898711084],[12.501282491639952,60.098801737977944],[12.528959327592705,60.16557519534331],[12.542797745569086,60.19282966773734],[12.526191643997432,60.22144686375107],[12.504050175235228,60.28140670301793],[12.498514808044675,60.32365113522867],[12.545565429164359,60.3468174367636],[12.60645446826042,60.40541455241076],[12.60645446826042,60.51306971836717],[12.581545315902943,60.55122597971881],[12.515120909616329,60.600284030028064],[12.512353226021055,60.6425284622388],[12.459767237710818,60.68613561806925],[12.396110515019483,60.7338309447588],[12.349059893899799,60.81831980918029],[12.335221475923419,60.85238789967282],[12.332453792328145,60.89054416102446],[12.2245141321124,61.013189286797584],[12.246655600874604,61.020002904896096],[12.448696503329717,61.05134554814923],[12.504050175235228,61.05134554814923],[12.611989835450974,61.04725737729012],[12.656272772975381,61.05270827176893],[12.683949608928138,61.06088461348713],[12.706091077690342,61.14264803066922],[12.794656952739157,61.20124514631638],[12.833404523073014,61.25847953834384],[12.872152093406871,61.35659563896234],[12.844475257454118,61.37703649325786],[12.6202928862368,61.53238698590383],[12.57047458152184,61.569180523635765],[12.44592881973444,61.56645507639636],[12.418251983781687,61.56236690553725],[12.340756843113972,61.61415040308591],[12.274332436827358,61.640042151860236],[12.138715940658859,61.723168292662024],[12.149786675039959,61.76677544849247],[12.16916046020689,61.82264711690022],[12.188534245373816,61.8935087451247],[12.21067571413602,61.96300764972947],[12.243887917279327,62.087015499122295],[12.271564753232084,62.17014163992408],[12.277100120422634,62.19603338869841],[12.299241589184838,62.26689501692288],[12.25495865166043,62.330943027048846]],[[12.25495865166043,62.330943027048846],[12.23004949930295,62.32685485618974],[12.19406961256437,62.32821757980945],[12.16916046020689,62.31322761999273],[12.130412889873032,62.31050217275333],[12.102736053920275,62.320041238091235],[12.061220799991144,62.34593298686556],[11.98926102651398,62.35956022306258],[11.91453356944154,62.367736564780785],[11.814896960011621,62.375912906498996],[11.767846338891937,62.3827265245975],[11.742937186534459,62.35956022306258],[11.72909876855808,62.36092294668228],[11.72909876855808,62.34865843410497],[11.687583514628948,62.35002115772467],[11.690351198224223,62.366373841161085],[11.670977413057294,62.3813638009778],[11.590714588794302,62.37318745925959],[11.554734702055722,62.37182473563989],[11.535360916888793,62.38545197183691],[11.496613346554934,62.43314729852646],[11.460633459816354,62.45358815282198],[11.455098092625803,62.46448994177959],[11.427421256673046,62.480842625216006],[11.369299901172262,62.494469861413016],[11.341623065219505,62.51491071570854],[11.297340127695097,62.52172433380704],[11.291804760504547,62.529900675525255],[11.25859255736124,62.531263399144954],[11.244754139384863,62.543527911722265],[11.244754139384863,62.56669421325719],[11.194935834669902,62.5707823841163],[11.194935834669902,62.591223238411814],[11.186632783884075,62.60485047460883],[11.164491315121872,62.61438953994674],[11.161723631526597,62.647094906819575],[11.131279111978566,62.649820354058974],[11.12297606119274,62.66208486663629],[11.04271323692975,62.6661730374954],[10.943076627499831,62.692064786269725],[10.91816747514235,62.696152957128824],[10.851743068855738,62.693427509889425],[10.7880863461644,62.6757121028333],[10.741035725044718,62.645732183199875],[10.718894256282512,62.649820354058974],[10.710591205496685,62.6661730374954],[10.649702166400624,62.67707482645301],[10.591580810899838,62.66344759025599],[10.444893580350236,62.682525720931814],[10.325883185753387,62.694790233509124],[10.23731731070457,62.694790233509124],[10.193034373180161,62.68797661541062],[10.176428271608508,62.69751568074852],[10.159822170036856,62.692064786269725],[10.145983752060477,62.6757121028333],[10.118306916107723,62.66481031387569],[10.10170081453607,62.636193117861964],[10.085094712964416,62.62529132890435],[10.074023978583314,62.602125027369425],[10.057417877011662,62.600762303749725],[10.02697335746363,62.585772343933016],[10.038044091844732,62.56805693687689],[10.004831888701426,62.55851787153898],[10.038044091844732,62.50264620313123],[10.049114826225836,62.49174441417362],[10.098933130940793,62.42769640404765],[9.95224590039119,62.39771648441422],[9.95224590039119,62.3813638009778],[9.932872115224264,62.355472052203474],[9.899659912080956,62.34457026324586],[9.838770872984895,62.36228567030198],[9.822164771413242,62.343207539626164],[9.844306240175445,62.33911936876706],[9.836003189389618,62.330943027048846],[9.838770872984895,62.31322761999273],[9.827700138603792,62.29960038379571],[9.797255619055761,62.2873358712184],[9.716992794792771,62.2832477003593],[9.603517767386474,62.25599322796527],[9.514951892337658,62.27779680588049],[9.484507372789627,62.29278676569721],[9.36549697819278,62.317315790851836],[9.108102403832156,62.36092294668228],[9.061051782712472,62.37318745925959]],[[9.777881833888834,59.41198903364843],[9.777881833888834,59.3806463903953],[9.769578783103007,59.3792836667756],[9.783417201079384,59.35066647076187],[9.755740365126629,59.324774721987545],[9.777881833888834,59.31659838026933],[9.811094037032138,59.289343907875306],[9.811094037032138,59.2825302897768],[9.838770872984895,59.270265777199484],[9.8719830761282,59.24846219928426],[9.877518443318753,59.221207726890235],[9.858144658151822,59.21575683241143],[9.89689222848568,59.17760057105979],[9.88582149410458,59.16942422934158],[9.830467822199068,59.163973334862774],[9.830467822199068,59.13944430970815],[9.822164771413242,59.12990524437024],[9.849841607365997,59.112189837314126],[9.852609290961272,59.07675902320189],[9.838770872984895,59.07267085234278],[9.836003189389618,59.03724003823054],[9.813861720627415,59.034514590991144],[9.836003189389618,59.02361280203353],[9.833235505794343,58.997721053259205],[9.783417201079384,59.03042642013204],[9.780649517484107,59.011348289456215],[9.764043415912456,59.009985565836516],[9.77234646669828,58.96910385724547],[9.794487935460486,58.898242229021],[9.968852001962844,58.72108815845982]],[[9.968852001962844,58.72108815845982],[10.074023978583314,58.74834263085385],[10.270529513847876,58.775597103247875],[10.594348494495113,58.76060714343116]],[[9.968852001962844,58.72108815845982],[9.788952568269934,58.672030108150565],[9.669942173673087,58.6038939271655]],[[9.669942173673087,58.6038939271655],[9.656103755696709,58.60934482164431],[9.506648841551831,58.69247096244609],[9.42085065009829,58.73880356551594],[9.351658560216402,58.778322550487275],[9.323981724263646,58.78377344496609],[9.304607939096718,58.774234379628176],[9.274163419548687,58.7960379575434],[9.229880482024278,58.7960379575434],[9.199435962476247,58.8042142992616],[9.207739013262074,58.81375336459951],[9.19113291169042,58.81511608821921],[9.19113291169042,58.845096007852646],[9.18559754449987,58.85872324404966],[9.157920708547115,58.88597771644369],[9.072122517093574,58.91050674159831],[9.036142630354991,58.93231031951354],[9.00016274361641,58.98136836982279]],[[9.00016274361641,58.98136836982279],[9.00016274361641,58.98136836982279]],[[9.00016274361641,58.98136836982279],[8.983556642044757,58.9922701587804],[8.939273704520348,58.985456540681895],[8.834101727899878,58.988181987921294],[8.8202633099235,58.96910385724547],[8.753838903636888,58.94321210847115],[8.773212688803817,58.93231031951354],[8.828566360709328,58.91459491245742],[8.811960259137674,58.892791334542196],[8.781515739589643,58.86826230938757]],[[8.781515739589643,58.86826230938757],[8.781515739589643,58.86826230938757]],[[8.781515739589643,58.86826230938757],[8.78981879037547,58.86281141490876],[8.787051106780194,58.84373328423295],[8.745535852851061,58.831468771655636],[8.723394384088857,58.85054690233145],[8.65973766139752,58.86689958576787],[8.60991935668256,58.91459491245742],[8.576707153539253,58.930947595893834],[8.515818114443192,58.91323218883772],[8.47430286051406,58.88734044006339],[8.418949188608549,58.90641857073921],[8.385736985465243,58.91323218883772],[8.311009528392804,58.91868308331652],[8.297171110416425,58.93503576675294],[8.225211336939262,58.963652962766666],[8.222443653343987,58.97046658086518],[8.178160715819578,58.98000564620309],[8.128342411104619,58.985456540681895],[8.07852410638966,58.97182930448488],[8.103433258747138,58.96501568638637]],[[8.103433258747138,58.96501568638637],[8.103433258747138,58.96501568638637]],[[8.103433258747138,58.96501568638637],[8.136645461890446,58.963652962766666],[8.092362524366038,58.94866300294996],[8.039776536055802,58.952751173809055],[8.009332016507772,58.96501568638637],[7.984422864150291,58.96229023914697],[7.937372243030607,58.9936328824001],[7.940139926625883,59.00589739497741],[7.9124630906731275,59.008622842216816],[7.901392356292026,59.02633824927293],[7.876483203934546,59.03860276185025],[7.868180153148719,59.06040633976547],[7.826664899219587,59.0903862593989],[7.804523430457382,59.11764073179293],[7.771311227314076,59.13399341522935],[7.740866707766045,59.14353248056725],[7.7297959733849435,59.16669878210218],[7.746402074956596,59.1871396363977],[7.746402074956596,59.20485504345382],[7.779614278099903,59.221207726890235],[7.757472809337698,59.22802134498874],[7.746402074956596,59.25118764652367],[7.724260606194392,59.26072671186158],[7.715957555408565,59.292069355114705],[7.696583770241636,59.326137445607245],[7.6744423014794325,59.33295106370575],[7.627391680359748,59.33295106370575],[7.610785578788095,59.339764681804255]],[[7.610785578788095,59.339764681804255],[7.610785578788095,59.339764681804255]],[[7.610785578788095,59.339764681804255],[7.613553262383371,59.347941023522466],[7.594179477216442,59.3779209431559],[7.538825805310932,59.39836179745142],[7.577573375644789,59.42561626984545],[7.58310874283534,59.444694400521264],[7.624623996764473,59.46240980757739],[7.594179477216442,59.4787624910138],[7.585876426430616,59.501928792548725],[7.536058121715656,59.52373237046395],[7.513916652953451,59.561888631815584],[7.552664223287309,59.58641765697021],[7.53329043812038,59.59323127506872],[7.538825805310932,59.60140761678693],[7.5028459185723495,59.609583958505134],[7.475169082619594,59.63138753642036],[7.483472133405421,59.63683843089917],[7.45302761385739,59.64774021985678],[7.450259930262115,59.64228932537797]],[[7.450259930262115,59.64228932537797],[7.450259930262115,59.64228932537797]],[[7.450259930262115,59.64228932537797],[7.4474922466668385,59.64228932537797]],[[7.4474922466668385,59.64228932537797],[7.4474922466668385,59.64365204899767]],[[7.4474922466668385,59.64365204899767],[7.4474922466668385,59.64637749623707]],[[7.4474922466668385,59.64637749623707],[7.4447245630715635,59.64637749623707]],[[7.4474922466668385,59.64637749623707],[7.4474922466668385,59.64774021985678]],[[7.4447245630715635,59.64637749623707],[7.4474922466668385,59.64774021985678]],[[7.4474922466668385,59.64774021985678],[7.4474922466668385,59.64910294347648]],[[7.4474922466668385,59.64910294347648],[7.4474922466668385,59.64910294347648]],[[7.4474922466668385,59.64910294347648],[7.4419568794762885,59.65864200881439],[7.403209309142431,59.65864200881439]],[[7.403209309142431,59.65864200881439],[7.403209309142431,59.65864200881439]],[[7.403209309142431,59.65864200881439],[7.392138574761328,59.63275026004006],[7.358926371618022,59.64092660175827],[7.3257141684747165,59.64365204899767],[7.300805016117236,59.65864200881439],[7.281431230950307,59.65591656157498],[7.2150068246636945,59.6722692450114]],[[7.095996430066847,59.782649858207215],[7.145814734781807,59.81126705422095],[7.143047051186532,59.82216884317856],[7.159653152758184,59.828982461277064],[7.1568854691629085,59.84533514471348],[7.143047051186532,59.85623693367109],[7.1568854691629085,59.8644132753893],[7.145814734781807,59.87940323520601],[7.170723887139286,59.90665770760005],[7.231612926235348,59.9625293760078],[7.284198914545583,59.98842112478213],[7.3229464848794406,59.98569567754272],[7.436421512285737,60.01840104441556],[7.4419568794762885,60.0579200293869],[7.489007500595973,60.098801737977944]],[[9.669942173673087,58.6038939271655],[9.492810423575452,58.50032693206819],[9.362729294597504,58.425377132984615],[9.113637771022706,58.27684025843716],[9.066587149903022,58.250948509662834],[8.91989991935342,58.16237147438224],[8.753838903636888,58.08197078081986],[8.540727266800673,57.97704106210285],[8.452161391751854,57.93888480075121],[8.405110770632172,57.925257564554194],[8.161554614247926,57.863935001667635],[7.829432582814862,57.79171064982346],[7.785149645290454,57.78080886086585],[7.693816086646361,57.76581890104913],[7.588644110025891,57.759005282950625],[7.466866031833767,57.760368006570324],[7.198400723092042,57.76173073019003],[7.123673266019603,57.76581890104913],[6.910561629183387,57.79034792620376],[6.8607433244684275,57.79988699154167],[6.528621293035364,57.87211134338584],[6.500944457082609,57.877562237864645],[6.434520050795996,57.89800309216017],[6.35148954293773,57.932071182652706],[6.149448640482617,58.027461836031804]],[[4.815425147559813,62.3827265245975],[4.809889780369262,62.377275630118696],[4.696414752962965,62.295512212936615],[4.665970233414934,62.27098318778199],[4.549727522413362,62.14970078562856],[4.510979952079505,62.11290724789662],[4.16778718626534,61.71499195094381],[4.153948768288962,61.687737478549785],[4.148413401098411,61.66184572977546],[4.134574983122033,61.54601422210084],[4.115201197955105,61.351144744483534],[4.104130463574002,61.22986234233011],[4.087524362002349,61.08405091502206],[4.090292045597625,61.011826563177884],[4.104130463574002,60.97639574906565],[4.245282326933054,60.72429187942089],[4.267423795695258,60.68749834168895],[4.317242100410218,60.59483313554925],[4.380898823101555,60.48036435149434],[4.400272608268484,60.4422080901427],[4.441787862197617,60.36998373829852],[4.494373850507852,60.27186763768002],[4.508212268484229,60.23098592908898],[4.555262889603913,60.074272712823316],[4.607848877914148,59.91347132569855],[4.6493641318432815,59.77447351648901],[4.671505600605485,59.665455626912895],[4.607848877914148,59.56325135543529],[4.602313510723597,59.557800460956486]],[[14.325185980926523,65.11907555295792],[14.228317055091882,65.04821392473346],[14.175731066781644,65.01278311062121],[14.076094457351726,64.93919603515734],[13.976457847921807,64.86015806521466],[13.818699882991101,64.73069932134302],[13.705224855584806,64.63939683882303],[13.655406550869845,64.58079972317587],[13.699689488394256,64.56580976335916],[13.890659656468266,64.507212647712],[14.084397508137553,64.47859545169827],[14.114842027685583,64.46224276826185],[14.11760971128086,64.43498829586783],[14.145286547233614,64.28372597408097],[14.156357281614717,64.19514893880037],[14.125912762066687,64.16244357192754],[13.990296265898184,64.02889665719681],[13.96815479713598,64.00845580290128],[13.887891972872993,64.01935759185889],[13.843609035348582,64.0275339335771],[13.71629558996591,64.04661206425293],[13.536396156273,64.06569019492873],[13.378638191342294,64.07931743112576],[13.209809492030487,64.09567011456217],[12.927505765312382,64.05751385321054],[12.833404523073014,64.0261712099574],[12.683949608928138,63.97438771240875],[12.578777632307666,63.89262429522666],[12.498514808044675,63.8326644559598],[12.329686108732869,63.71547022466548],[12.299241589184838,63.67186306883504],[12.227281815707673,63.63098136024399],[12.149786675039959,63.594187822512055],[12.213443397731297,63.478356314837434],[12.141483624254132,63.41022013385236],[12.061220799991144,63.336633058388486],[11.975422608537603,63.26985960102312],[11.997564077299806,63.242605128629094],[12.052917749205317,63.18400801298193],[12.218978764921847,63.00004032432224],[12.16916046020689,62.96733495744941],[12.075059217967521,62.90192422370374],[12.135948257063582,62.74793645467748],[12.075059217967521,62.64164401234077],[12.055685432800592,62.611664092707336],[12.105503737515551,62.540802464482866],[12.166392776611612,62.45767632368108],[12.18023119458799,62.434510022146156],[12.25495865166043,62.330943027048846]],[[7.646765465526677,63.768616445833835],[7.763008176528249,63.83675262681891],[7.884786254720373,63.91033970228278],[8.07852410638966,64.023445762718],[8.131110094699896,64.05206295873172],[8.236282071320364,64.09430739094248],[8.360827833107763,64.14063999401232],[8.623757774658937,64.24011881825052],[8.939273704520348,64.35731304954484],[9.323981724263646,64.54673163268333],[9.70038669322112,64.72797387410363],[9.802790986246313,64.77839464803257],[9.9965288379156,64.86969713055257],[10.010367255891978,64.8942261557072],[10.074023978583314,64.97735229650898],[10.148751435655754,65.05230209559257],[10.364630756087244,65.26488698026598],[10.455964314731336,65.35210129192687],[10.577742392923462,65.4706582468409]],[[16.254261446833567,69.59698536729675],[16.67771703691072,69.66648427190152],[16.90189940812804,69.71417959859107],[17.05688968946347,69.74552224184421],[17.239556806751654,69.86271647313853],[17.45266844358787,69.99353794062986],[17.599355674137474,70.06712501609374],[17.615961775709128,70.07393863419225],[17.90380086961778,70.2170246142609],[18.177801545550057,70.34784608175224],[18.233155217455568,70.36828693604775],[18.33832719407604,70.39554140844179],[18.797762670891775,70.48003027286327],[18.853116342797286,70.48820661458147],[19.268268882088616,70.54544100660894],[19.38727927668546,70.56043096642566],[19.813502550357896,70.61766535845311],[19.879926956644507,70.62584170017132],[20.480514296819294,70.7035169464943]],[[20.480514296819294,70.7035169464943],[20.69362593365551,70.51682381059521],[20.981465027564166,70.26199449371104],[21.006374179921647,70.23746546855642],[21.175202879233453,70.2224755087397],[21.23332423473424,70.22111278512],[21.277607172258648,70.2156618906412],[21.3052840082114,70.20748554892299],[21.35786999652164,70.19794648358507],[21.4187590356177,70.19249558910627],[21.415991352022424,70.18431924738806],[21.443668187975177,70.18295652376835],[21.47964807471376,70.19249558910627],[21.49348649269014,70.18431924738806],[21.526698695833446,70.18295652376835],[21.540537113809823,70.19249558910627],[21.562678582572026,70.19522103634567],[21.62910298885864,70.18977014186687],[21.60972920369171,70.18023107652895],[21.626335305263364,70.16660384033194],[21.65954750840667,70.15979022223344],[21.667850559192498,70.15161388051523],[21.69829507874053,70.14207481517732],[21.720436547502732,70.14071209155762],[21.712133496716906,70.12708485536061],[21.72320423109801,70.1216339608818],[21.797931688170447,70.116183066403],[21.831143891313754,70.10119310658628],[21.87542682883816,70.11073217192418],[21.872659145242885,70.1298103026],[21.91417439917202,70.14207481517732],[21.91417439917202,70.15842749861373],[21.96399270388698,70.14888843327583],[22.002740274220837,70.16251566947284],[22.047023211745245,70.16524111671224],[22.080235414888552,70.17205473481076],[22.11898298522241,70.17069201119105],[22.127286036008233,70.14752570965612],[22.12451835241296,70.1325357498394],[22.10514456724603,70.12708485536061],[22.11898298522241,70.1202712372621],[22.168801289937367,70.06439956885434],[22.202013493080674,70.06576229247403],[22.213084227461774,70.05894867437553],[22.21585191105705,70.03578237284061],[22.18540739150902,70.0262433075027],[22.188175075104297,70.01261607130569],[22.24629643060508,69.97582253357375],[22.243528747009808,69.96083257375703],[22.282276317343666,69.94584261394031],[22.404054395535788,69.92403903602509],[22.437266598679095,69.92676448326449],[22.498155637775156,69.91858814154628],[22.52583247372791,69.90087273449016],[22.448337333060195,69.87361826209614],[22.478781852608225,69.86271647313853],[22.53136784091846,69.86135374951883],[22.547973942490113,69.84636378970211],[22.534135524513736,69.84363834246271],[22.487084903394052,69.81910931730809],[22.45110501665547,69.79049212129436],[22.536903208109013,69.77005126699883],[22.55627699327594,69.74824768908361],[22.539670891704287,69.72644411116839],[22.57565077844287,69.69510146791526],[22.75555021213578,69.64604341760601],[22.83581303639877,69.66784699552123],[22.893934391899556,69.6474061412257],[22.846883770779872,69.62151439245139],[22.777691680897984,69.60652443263467],[22.77215631370743,69.58063268386034],[22.744479477754677,69.56155455318452],[22.744479477754677,69.5492900406072],[22.702964223825543,69.5424764225087],[22.722338008992473,69.50840833201616],[22.628236766753105,69.51931012097377],[22.509226372156256,69.51249650287527],[22.381912926773584,69.48660475410094],[22.27950863374839,69.48251658324183],[22.27397326655784,69.47025207066453],[22.301650102510592,69.4511739399887],[22.287811684534216,69.42800763845378],[22.326559254868073,69.39666499520065],[22.326559254868073,69.36804779918693],[22.36530682520193,69.36259690470811],[22.398519028345238,69.32852881421557],[22.434498915083818,69.30808795992006],[22.453872700250745,69.28764710562453],[22.481549536203502,69.26720625132901],[22.506458688560983,69.26311808046991],[22.528600157323186,69.24131450255469],[22.523064790132636,69.22496181911828],[22.53136784091846,69.20043279396364],[22.517529422942083,69.17590376880902],[22.528600157323186,69.1609138089923],[22.49538795417988,69.14319840193619],[22.50092332137043,69.12548299488007],[22.478781852608225,69.11049303506336],[22.412357446321614,69.10231669334514],[22.332094622058623,69.08460128628903],[22.318256204082246,69.07915039181022],[22.21585191105705,69.07915039181022],[21.983366489053907,69.07233677371171]],[[21.983366489053907,69.07233677371171],[21.977831121863357,69.07642494457082],[21.806234738956274,69.16636470347112],[21.72320423109801,69.21406003016065],[21.626335305263364,69.27674531666693],[21.440900504379904,69.29446072372305],[21.277607172258648,69.31217613077916],[21.09494005497046,69.26039263323051],[21.00360649632637,69.22223637187886],[20.987000394754716,69.19225645224543],[21.047889433850777,69.13911023107708],[21.056192484636604,69.12275754764066],[21.10877847294684,69.10367941696485],[21.056192484636604,69.03690595959948],[20.834777797014564,69.09005218076783],[20.71853508601299,69.12003210040126],[20.55247407029646,69.0600722611344],[20.30338254672166,69.05325864303589],[20.059826390337417,69.04508230131769],[20.131786163814578,69.01101421082515],[20.18713983572009,68.98103429119172],[20.26186729279253,68.94424075345978],[20.306150230316938,68.92652534640366],[20.32829169907914,68.82704652216546],[20.336594749864968,68.80251749701084],[20.27293802717363,68.73983221050457],[20.203745937291743,68.6662451350407],[20.084735542694897,68.60628529577383],[20.05152333955159,68.59129533595711],[19.938048312145295,68.55858996908428],[20.02661418719411,68.53133549669026],[20.225887406053946,68.49045378809922],[20.109644695052374,68.44412118502936],[20.070897124718517,68.42640577797324],[19.976795882479152,68.38824951662161],[19.92144221057364,68.35554414974877],[19.78029034721459,68.3814358985231],[19.553340292401995,68.42095488349445],[19.091137131990983,68.49863012981743],[18.983197471775238,68.51634553687354],[18.830974874035082,68.51225736601444],[18.73410594820044,68.51089464239473],[18.62063092079414,68.50680647153563],[18.485014424625643,68.55586452184488],[18.40475160036265,68.58175627061921],[18.299579623742183,68.5640408635631],[18.125215557239823,68.53678639116906]],[[21.983366489053907,69.07233677371171],[22.177104340723194,68.9565052660371],[22.19094275869957,68.91834900468545],[22.26013484858146,68.87746729609441],[22.34039767284445,68.82704652216546],[22.36530682520193,68.75209672308188],[22.373609875987757,68.71666590896965],[22.534135524513736,68.74392038136368],[22.592256880014524,68.72893042154696],[22.799833149660188,68.68804871295592],[22.954823430995617,68.68804871295592],[23.04615698963971,68.68941143657563],[23.167935067831834,68.62808887368905],[23.31738998197671,68.66488241142099],[23.44193574376411,68.69213688381502],[23.54710772038458,68.69758777829382],[23.674421165767253,68.70576412001203],[23.729774837672764,68.75073399946218],[23.77405777519717,68.81887018044725],[23.870926701031816,68.83658558750336],[23.98440172843811,68.82704652216546],[24.075735287082207,68.77935119547591],[24.15876579494047,68.79025298443352],[24.15323042774992,68.75345944670158],[24.208584099655432,68.74528310498337],[24.250099353584563,68.72756769792726],[24.302685341894797,68.71802863258935],[24.510261611540464,68.69486233105442],[24.607130537375106,68.68123509485741],[24.78426228747274,68.63626521540726],[24.856222060949904,68.56267813994339],[24.903272682069588,68.55450179822517],[24.906040365664865,68.58175627061921],[24.917111100045965,68.60492257215412],[24.947555619593995,68.61582436111175],[25.011212342285333,68.61446163749204],[25.01951539307116,68.62400070282995],[25.04995991261919,68.62672615006936],[25.08040443216722,68.62263797921025],[25.088707482953048,68.63490249178756],[25.116384318905805,68.63899066264666],[25.11084895171525,68.68804871295592],[25.121919686096355,68.72211680344846],[25.12468736969163,68.75754761756069],[25.135758104072732,68.7616357884198],[25.141293471263282,68.78752753719412],[25.17450567440659,68.80660566786995],[25.196647143168793,68.80933111510934],[25.210485561145173,68.82023290406696],[25.232627029907377,68.82568379854575],[25.238162397097927,68.83931103474278],[25.26583923305068,68.85021282370039],[25.346102057313672,68.8706536779959],[25.40422341281446,68.89245725591113],[25.42082951438611,68.89109453229142],[25.473415502696348,68.90335904486874],[25.492789287863275,68.90472176848844],[25.53430454179241,68.88700636143233],[25.592425897293193,68.88291819057322],[25.628405784031777,68.89245725591113],[25.65054725279398,68.90472176848844],[25.65608261998453,68.91698628106576],[25.692062506723115,68.94424075345978],[25.71420397548532,68.966044331375],[25.711436291890042,68.98103429119172],[25.722507026271145,68.99057335652962],[25.764022280200276,69.00420059272665],[25.777860698176653,69.02055327616306],[25.74464849503335,69.03963140683888],[25.752951545819176,69.0587095375147],[25.728042393461696,69.07369949733142],[25.71973934267587,69.10913031144365],[25.741880811438072,69.13502206021798],[25.708668608294765,69.18680555776663],[25.692062506723115,69.19634462310454],[25.71420397548532,69.21133458292125],[25.705900924699492,69.22223637187886],[25.703133241104215,69.2549417387517],[25.733577760652246,69.26584352770931],[25.747416178628622,69.28492165838513],[25.736345444247522,69.29854889458215],[25.747416178628622,69.30127434182155],[25.739113127842796,69.31762702525796],[25.758486913009726,69.32716609059588],[25.758486913009726,69.34079332679289],[25.777860698176653,69.34351877403229],[25.788931432557757,69.35714601022931],[25.819375952105787,69.3612341810884],[25.819375952105787,69.38031231176423],[25.847052788058544,69.39257682434155],[25.83044668648689,69.40756678415826],[25.81107290131996,69.40484133691885],[25.816608268510514,69.41846857311587],[25.80553753412941,69.43482125655228],[25.83044668648689,69.45253666360841],[25.838749737272718,69.47025207066453],[25.863658889630194,69.47434024152363],[25.847052788058544,69.48796747772064],[25.86089120603492,69.51385922649497],[25.877497307606575,69.52884918631169],[25.838749737272718,69.5424764225087],[25.84151742086799,69.5520154878466],[25.874729624011298,69.55337821146631],[25.93561866310736,69.57109361852243],[25.977133917036493,69.61061260349376],[25.963295499060116,69.62287711607108],[25.949457081083736,69.65013158846511],[25.90517414355933,69.65694520656362],[25.89133572558295,69.66648427190152],[25.943921713893186,69.68419967895764],[25.952224764679013,69.69782691515466],[25.993740018608147,69.71826776945018],[26.01588148737035,69.72371866392899],[26.054629057704208,69.72099321668958],[26.118285780395546,69.73189500564719],[26.148730299943576,69.7468849654639],[26.148730299943576,69.75506130718212],[26.184710186682157,69.76051220166093],[26.193013237467984,69.77822760871705],[26.215154706230187,69.77959033233674],[26.228993124206564,69.79321756853376],[26.248366909373495,69.79594301577316],[26.245599225778218,69.81774659368838],[26.26497301094515,69.81910931730809],[26.33139741723176,69.8354620007445],[26.389518772732547,69.85726557865972],[26.414427925090028,69.88043188019465],[26.408892557899474,69.90223545810987],[26.458710862614435,69.9213135887857],[26.464246229804985,69.94039171946152],[26.491923065757742,69.94584261394031],[26.550044421258526,69.94720533756002],[26.630307245521518,69.96083257375703],[26.680125550236475,69.96492074461614],[26.69673165180813,69.95129350841913],[26.72164080416561,69.94447989032062],[26.78806521045222,69.95946985013732],[26.848954249548285,69.96083257375703],[26.860024983929385,69.95674440289793],[26.857257300334112,69.94175444308121],[26.88216645269159,69.9322153777433],[26.926449390216,69.93902899584181],[26.970732327740407,69.93902899584181],[26.99840916369316,69.9294899305039],[27.031621366836468,69.91041179982808],[27.064833569979776,69.91858814154628],[27.100813456718356,69.91722541792659],[27.128490292671113,69.9322153777433],[27.15339944502859,69.9322153777433],[27.23366226929158,69.94856806117971],[27.289015941197093,69.95129350841913],[27.305622042768746,69.95674440289793],[27.275177523220716,69.97991070443285],[27.311157409959296,69.99081249339046],[27.338834245912054,69.98808704615107],[27.38311718343646,69.99898883510868],[27.402490968603388,70.01261607130569],[27.438470855341972,70.0207924130239],[27.521501363200237,70.02215513664359],[27.540875148367167,70.0330569256012],[27.551945882748267,70.05758595075584],[27.579622718701025,70.06848773971345],[27.615602605439605,70.07530135781195],[27.695865429702597,70.07666408143166],[27.7290776328459,70.06576229247403],[27.74845141801283,70.06439956885434],[27.78443130475141,70.07530135781195],[27.839784976656922,70.07938952867106],[27.881300230586056,70.08620314676956],[27.95879537125377,70.09165404124836],[27.978169156420698,70.05486050351642],[27.98370452361125,70.01397879492538],[28.160836273708885,69.9213135887857],[28.346271074592345,69.88043188019465],[28.32966497302069,69.84908923694152],[28.40439243009313,69.81774659368838],[28.443140000426986,69.81229569920959],[28.6451809028821,69.77822760871705],[28.76419129747895,69.75642403080182],[28.802938867812806,69.75097313632301],[28.9164138952191,69.72916955840779],[29.135060899245868,69.69510146791526],[29.157202368008072,69.65830793018333],[29.17934383677028,69.62969073416959],[29.231929825080513,69.57790723662093],[29.290051180581298,69.52476101545258],[29.33710180170098,69.47842841238273],[29.218091407104136,69.39802771882034],[29.057565758578153,69.32580336697617],[28.993909035886816,69.29582344734274],[28.83061570376556,69.22496181911828],[28.83061570376556,69.17181559794992],[28.805706551408083,69.11049303506336],[28.85552485612304,69.07642494457082],[28.93025231319548,69.0518959194162],[29.018818188244296,69.02600417064187],[29.0409596570065,69.01101421082515],[29.057565758578153,69.01510238168426],[29.093545645316738,69.03963140683888],[29.143363950031695,69.06279770837381],[29.15997005160335,69.06688587923291],[29.243000559461613,69.11321848230276],[29.231929825080513,69.12412027126037],[29.256838977437994,69.1527374672741],[29.248535926652167,69.16227653261201],[29.28174812979547,69.16772742709081],[29.292818864176574,69.18135466328783],[29.292818864176574,69.20724641206215],[29.314960332938778,69.23586360807589],[29.27621276260492,69.2494908442729],[29.27621276260492,69.27674531666693],[29.292818864176574,69.29854889458215],[29.367546321249012,69.31353885439886],[29.392455473606493,69.32307791973678],[29.40629389158287,69.31898974887767],[29.48655671584586,69.32171519611707],[29.503162817417515,69.32852881421557],[29.528071969774995,69.32852881421557],[29.539142704156095,69.31626430163827],[29.572354907299403,69.31762702525796],[29.630476262800187,69.3421560504126],[29.69136530189625,69.3612341810884],[29.6969006690868,69.37213597004603],[29.721809821444282,69.38985137710215],[29.774395809754516,69.39393954796125],[29.799304962111997,69.40756678415826],[29.84635558323168,69.42255674397498],[29.87680010277971,69.42391946759467],[29.918315356708842,69.41846857311587],[29.943224509066322,69.40484133691885],[29.97090134501908,69.40620406053856],[30.023487333329314,69.41983129673557],[30.0926794232112,69.46071300532661],[30.117588575568682,69.46888934704482],[30.117588575568682,69.51113377925557],[30.13142699354506,69.52476101545258],[30.178477614664743,69.5383882516496],[30.189548349045847,69.56836817128303],[30.18124529826002,69.58608357833914],[30.16740688028364,69.59017174919825],[30.153568462307263,69.60788715625436],[30.15080077871199,69.62423983969079],[30.13696236073561,69.64331797036661],[30.089911739615925,69.64331797036661],[30.084376372425375,69.65830793018333],[30.153568462307263,69.66920971914092],[30.203386767022224,69.65830793018333],[30.303023376452142,69.62969073416959],[30.42203377104899,69.58880902557854],[30.49676122812143,69.5520154878466],[30.516135013288356,69.5397509752693],[30.58809478676552,69.5424764225087],[30.665589927433235,69.54111369888899],[30.74308506810095,69.5329373571708],[30.81781252517339,69.52884918631169],[30.85932777910252,69.53702552802989],[30.89253998224583,69.55065276422691],[30.939590603365513,69.56155455318452],[30.945125970556063,69.57518178938153],[30.939590603365513,69.59834809091646],[30.94789365415134,69.59971081453617],[30.950661337746617,69.6392297995075],[30.934055236174963,69.6474061412257],[30.92298450179386,69.67193516638034],[30.936822919770236,69.67329789000003],[30.931287552579686,69.68556240257735],[30.909146083817483,69.70055236239406],[30.889772298650552,69.70327780963346],[30.873166197078902,69.71690504583049],[30.889772298650552,69.71963049306989],[30.889772298650552,69.73870862374571],[30.878701564269452,69.737345900126],[30.870398513483625,69.75506130718212],[30.81781252517339,69.79458029215346],[31.105651619082046,69.97991070443285],[31.50419805680172,70.1202712372621],[31.58446088106471,70.14343753879702],[31.637046869374945,70.23746546855642],[31.67302675611353,70.27289628266865],[31.73391579520959,70.32604250383702],[31.753289580376517,70.35193425261133],[31.761592631162344,70.37918872500536],[31.758824947567067,70.4118940918782],[31.750521896781244,70.42960949893431],[31.728380428019037,70.45550124770864],[31.675794439708802,70.49229478544058],[31.587228564659988,70.53317649403162],[31.44330901770566,70.57814637348177],[31.221894330083618,70.64491983084714],[30.873166197078902,70.74848682594444],[30.613003939123,70.82479934864773],[30.58809478676552,70.83297569036593],[30.42756913823954,70.87385739895697],[30.19231603264112,70.91610183116772],[29.566819540108852,71.02375699712412],[29.50593050101279,71.03738423332115],[29.15997005160335,71.12051037412293],[28.80017118421753,71.20636196216412],[28.556615027833285,71.26223363057187],[28.468049152784467,71.279949037628],[28.362877176163998,71.2922135502053],[28.099947234612824,71.30992895726142],[28.044593562707313,71.31265440450083],[27.77336057037031,71.32900708793724],[27.7180068984648,71.33173253517666],[27.0620658863845,71.35217338947217],[26.4171956086853,71.3685260729086],[25.963295499060116,71.37942786186619],[25.71420397548532,71.384878756345],[25.6256381004365,71.384878756345],[25.542607592578236,71.3807905854859],[25.29074838540816,71.36307517842978],[24.91987878364124,71.33582070603575],[24.62927200613731,71.31401712812053],[24.341432912228655,71.30856623364173],[24.01761393158142,71.30038989192352],[23.989937095628665,71.30038989192352],[23.854320599460163,71.29357627382501],[23.724239470482214,71.279949037628],[23.643976646219222,71.26632180143098],[23.458541845335763,71.22816554007935],[23.353369868715294,71.20772468578382],[22.8551868215657,71.10552041430621],[22.476014169012952,71.02648244436354],[22.46494343463185,71.02511972074383],[22.298882418915316,70.98832618301189],[22.174336657127917,70.95970898699817],[21.911406715576742,70.901111871351],[21.701062762335802,70.85341654466146],[21.175202879233453,70.78936853453548],[20.480514296819294,70.7035169464943]]]}